{"type":"FeatureCollection","features":[{"type":"Feature","properties":{"id":"turksib","name":"Турксибский","nameEn":"Turksib"},"geometry":{"type":"MultiPolygon","coordinates":[[[[76.930127,43.300469],[76.930178,43.300304],[76.930372,43.299889],[76.931161,43.298778],[76.93129,43.298607],[76.931477,43.298357],[76.931972,43.297677],[76.932867,43.296446],[76.933185,43.296011],[76.933386,43.29575],[76.933514,43.295568],[76.933998,43.294895],[76.934097,43.294762],[76.935401,43.292906],[76.936199,43.293085],[76.93702,43.293174],[76.93914,43.29318],[76.944512,43.293317],[76.948031,43.294234],[76.949673,43.29464],[76.951292,43.294779],[76.952796,43.294521],[76.954301,43.294176],[76.957263,43.293383],[76.95918,43.292903],[76.960388,43.292847],[76.960814,43.2929],[76.961222,43.293019],[76.96301,43.293355],[76.963853,43.293408],[76.964742,43.293421],[76.968355,43.293342],[76.973684,43.29311],[76.973824,43.29361],[76.974624,43.293627],[76.974833,43.293619],[76.976745,43.294407],[76.977647,43.294811],[76.979531,43.295627],[76.990971,43.297536],[76.997085,43.296464],[76.998305,43.296289],[77.012528,43.305582],[77.015177,43.308003],[77.025095,43.319948],[77.025835,43.319598],[77.026097,43.319931],[77.026193,43.320241],[77.026795,43.320946],[77.026869,43.320915],[77.027379,43.321633],[77.027569,43.321574],[77.027888,43.321985],[77.027717,43.322102],[77.028089,43.322538],[77.028284,43.322454],[77.028384,43.322679],[77.035476,43.330937],[77.038316,43.334346],[77.040045,43.336199],[77.039837,43.336291],[77.040507,43.337081],[77.041244,43.337691],[77.040715,43.338145],[77.04055,43.338703],[77.039282,43.339935],[77.038012,43.340905],[77.037889,43.341224],[77.03423,43.344593],[77.033856,43.344818],[77.033649,43.345135],[77.031855,43.34676],[77.03277,43.347208],[77.033856,43.347252],[77.034232,43.347985],[77.03607,43.348895],[77.036999,43.349004],[77.038614,43.346158],[77.047359,43.348682],[77.044717,43.353146],[77.051707,43.356599],[77.057239,43.35955],[77.060199,43.35962],[77.064922,43.361959],[77.07477,43.369405],[77.084902,43.374405],[77.085459,43.373815],[77.087293,43.37476],[77.087045,43.37546],[77.100843,43.382294],[77.101003,43.382115],[77.10265,43.382867],[77.102332,43.383343],[77.10238,43.384115],[77.101864,43.384484],[77.099774,43.383448],[77.100483,43.382662],[77.086703,43.375845],[77.086597,43.375989],[77.085572,43.376147],[77.083978,43.375379],[77.084555,43.374782],[77.077578,43.371348],[77.076023,43.372938],[77.07303,43.371511],[77.06903,43.373178],[77.067853,43.374439],[77.04484,43.36295],[77.022213,43.362475],[77.011542,43.359773],[77.011387,43.360697],[77.01152,43.361211],[77.012052,43.361126],[77.01272,43.363741],[77.011978,43.369029],[77.011837,43.369733],[77.01152,43.370193],[77.013695,43.375],[77.012114,43.375235],[77.011896,43.375523],[77.012109,43.375987],[77.011991,43.376572],[77.011626,43.377029],[77.011093,43.377272],[77.010973,43.377873],[77.011203,43.378526],[77.011184,43.379659],[77.011087,43.380011],[77.011093,43.380416],[77.011465,43.381094],[77.012891,43.382315],[77.015268,43.384653],[77.015974,43.385835],[77.016041,43.386283],[77.012202,43.386716],[77.008683,43.387215],[77.008256,43.387571],[77.008372,43.388315],[77.005714,43.388426],[77.005239,43.388657],[77.006556,43.390185],[77.007042,43.390406],[77.007539,43.391303],[77.007419,43.392123],[77.004665,43.392726],[77.004836,43.393229],[77.004711,43.39327],[77.00415,43.392301],[77.003272,43.392745],[77.002616,43.393224],[77.003542,43.394264],[77.003025,43.394434],[77.002587,43.393929],[77.001749,43.394339],[77.002029,43.394833],[77.001148,43.39511],[77.002731,43.399101],[77.000404,43.397877],[76.99998,43.397741],[76.999444,43.397704],[76.99848,43.397973],[76.997136,43.398862],[76.996637,43.399259],[76.995522,43.399533],[76.994271,43.399666],[76.993197,43.399521],[76.992305,43.399187],[76.988999,43.401249],[76.988245,43.401828],[76.988007,43.40186],[76.987575,43.402811],[76.987338,43.403685],[76.987189,43.403571],[76.987129,43.403328],[76.986751,43.403054],[76.986056,43.403627],[76.986082,43.402823],[76.985395,43.402754],[76.985181,43.402461],[76.985361,43.402131],[76.984554,43.401888],[76.984013,43.401844],[76.983618,43.401432],[76.982915,43.401227],[76.982743,43.400802],[76.983009,43.400522],[76.983618,43.400565],[76.983541,43.400341],[76.982674,43.400322],[76.982589,43.399967],[76.983215,43.399767],[76.983026,43.399493],[76.983095,43.399106],[76.982872,43.39895],[76.982374,43.399063],[76.981996,43.399063],[76.981816,43.398801],[76.98185,43.398582],[76.981559,43.39842],[76.981207,43.398414],[76.981035,43.398271],[76.981215,43.398021],[76.981679,43.397977],[76.981902,43.397653],[76.981868,43.397273],[76.980966,43.396269],[76.981129,43.396007],[76.980975,43.395894],[76.980572,43.39582],[76.98052,43.395601],[76.980855,43.395464],[76.98082,43.395052],[76.980563,43.394697],[76.980185,43.394435],[76.979147,43.393874],[76.979258,43.393499],[76.979936,43.393406],[76.980151,43.392932],[76.98016,43.392508],[76.980451,43.392308],[76.980348,43.392071],[76.980134,43.391946],[76.980323,43.391778],[76.979962,43.391186],[76.980048,43.390674],[76.98022,43.390381],[76.980031,43.390175],[76.979713,43.39],[76.978657,43.389994],[76.9784,43.38972],[76.97846,43.389439],[76.979044,43.389046],[76.979087,43.388896],[76.978743,43.388765],[76.97828,43.388928],[76.977885,43.388946],[76.977567,43.389096],[76.97749,43.389202],[76.97725,43.389246],[76.977164,43.389034],[76.97719,43.388772],[76.97707,43.388366],[76.976125,43.388011],[76.975877,43.38753],[76.975499,43.387287],[76.974932,43.387256],[76.974804,43.387618],[76.974546,43.387693],[76.973765,43.387605],[76.973413,43.387287],[76.972387,43.386978],[76.971826,43.387036],[76.971594,43.386786],[76.971868,43.386289],[76.971242,43.385896],[76.971654,43.385553],[76.971637,43.385247],[76.971345,43.385116],[76.971225,43.384817],[76.971242,43.384486],[76.970744,43.384399],[76.970443,43.384256],[76.970306,43.383962],[76.969637,43.383732],[76.968504,43.383707],[76.968323,43.384043],[76.96792,43.384293],[76.967482,43.38415],[76.967405,43.3838],[76.96792,43.383495],[76.968006,43.383239],[76.96774,43.383108],[76.966667,43.383332],[76.966573,43.383152],[76.967259,43.382596],[76.966375,43.382609],[76.966238,43.38226],[76.966693,43.381966],[76.967053,43.381654],[76.966495,43.381436],[76.965791,43.381611],[76.965474,43.381449],[76.965397,43.381081],[76.965869,43.380681],[76.965685,43.380096],[76.965682,43.379897],[76.965488,43.379811],[76.964789,43.380585],[76.964017,43.380746],[76.963905,43.380597],[76.96388,43.3804],[76.964281,43.380138],[76.964472,43.379899],[76.963946,43.379951],[76.963594,43.379958],[76.9635,43.379755],[76.963646,43.379608],[76.964075,43.379165],[76.963998,43.378947],[76.963526,43.378791],[76.96344,43.37856],[76.963663,43.378279],[76.963277,43.378067],[76.962736,43.377968],[76.962332,43.377525],[76.961363,43.376845],[76.96132,43.376558],[76.961131,43.376533],[76.960762,43.37637],[76.960547,43.375934],[76.960603,43.375666],[76.960223,43.375938],[76.960084,43.375435],[76.959719,43.375398],[76.959767,43.375098],[76.95936,43.375129],[76.959685,43.374861],[76.959242,43.37451],[76.959094,43.37463],[76.958607,43.374425],[76.958826,43.374381],[76.958895,43.374289],[76.958628,43.374238],[76.958396,43.373997],[76.95841,43.373704],[76.957896,43.373595],[76.958127,43.37321],[76.957676,43.373409],[76.957263,43.372946],[76.956229,43.37298],[76.956675,43.372512],[76.955714,43.372265],[76.955482,43.372414],[76.955185,43.372298],[76.955312,43.371982],[76.955024,43.372069],[76.953888,43.370221],[76.953253,43.370106],[76.953395,43.36983],[76.953089,43.369756],[76.953287,43.369526],[76.952755,43.369114],[76.952863,43.368764],[76.953254,43.368637],[76.952734,43.368183],[76.953202,43.367859],[76.952891,43.367612],[76.95297,43.367431],[76.953378,43.367365],[76.95331,43.366715],[76.953646,43.366737],[76.953903,43.36642],[76.95382,43.365809],[76.953118,43.365389],[76.953208,43.36513],[76.952993,43.365073],[76.95305,43.364908],[76.952693,43.364908],[76.952574,43.36478],[76.952291,43.364768],[76.952246,43.364525],[76.952602,43.364467],[76.952665,43.364249],[76.951117,43.362819],[76.950606,43.362388],[76.950299,43.36232],[76.950371,43.362023],[76.950095,43.361577],[76.949627,43.36149],[76.949767,43.361199],[76.949451,43.361217],[76.949246,43.360955],[76.948894,43.361062],[76.948562,43.360719],[76.94815,43.360893],[76.948049,43.360553],[76.947577,43.360509],[76.947253,43.360541],[76.946848,43.360803],[76.946772,43.360744],[76.946957,43.360445],[76.946672,43.360163],[76.946488,43.360404],[76.946272,43.360183],[76.945604,43.360515],[76.945263,43.360632],[76.945159,43.360276],[76.944863,43.360364],[76.944526,43.360061],[76.944387,43.359659],[76.94401,43.359287],[76.94409,43.359045],[76.942822,43.358679],[76.940805,43.359163],[76.940413,43.359269],[76.939356,43.356815],[76.938965,43.356126],[76.939031,43.356019],[76.93768,43.352341],[76.937242,43.351335],[76.936058,43.349817],[76.936223,43.349423],[76.93387,43.347052],[76.933642,43.346801],[76.93347,43.346587],[76.933226,43.346277],[76.933028,43.345934],[76.932852,43.345578],[76.932685,43.345037],[76.932548,43.344356],[76.932458,43.343784],[76.932464,43.343651],[76.932478,43.343323],[76.932611,43.342482],[76.932711,43.341696],[76.932751,43.341233],[76.932756,43.341175],[76.932757,43.341151],[76.932854,43.339984],[76.932886,43.339588],[76.932877,43.338857],[76.932846,43.338418],[76.932755,43.337098],[76.932744,43.33694],[76.932753,43.336717],[76.932785,43.335961],[76.932817,43.33519],[76.932897,43.333695],[76.932974,43.332257],[76.932996,43.332032],[76.933042,43.331888],[76.932952,43.331612],[76.9328,43.33125],[76.932719,43.331077],[76.932607,43.330836],[76.932529,43.330669],[76.932392,43.330342],[76.932325,43.330102],[76.932258,43.329802],[76.932239,43.329695],[76.932215,43.329539],[76.93202,43.328116],[76.931898,43.327329],[76.931708,43.325902],[76.931567,43.324842],[76.931221,43.322336],[76.931136,43.321681],[76.931032,43.32088],[76.931018,43.320771],[76.930903,43.319891],[76.930625,43.317723],[76.930615,43.317643],[76.930576,43.317364],[76.930543,43.317061],[76.930538,43.317023],[76.930447,43.316302],[76.93041,43.316004],[76.9303,43.315136],[76.930264,43.314699],[76.930259,43.314638],[76.930258,43.314215],[76.930292,43.313749],[76.93033,43.313353],[76.930386,43.312974],[76.930585,43.311993],[76.930801,43.310749],[76.930836,43.310398],[76.930827,43.310041],[76.930804,43.309789],[76.930774,43.309555],[76.930706,43.309071],[76.93014,43.305372],[76.930083,43.304921],[76.930036,43.304562],[76.930018,43.304267],[76.930029,43.302664],[76.930053,43.301732],[76.93009,43.300932],[76.930094,43.300833],[76.9301,43.30061],[76.930127,43.300469]]]]}},{"type":"Feature","properties":{"id":"zhetysu","name":"Жетысуский","nameEn":"Zhetysu"},"geometry":{"type":"MultiPolygon","coordinates":[[[[76.886005,43.268653],[76.885766,43.263382],[76.885831,43.263154],[76.886679,43.261328],[76.886859,43.260983],[76.886911,43.260515],[76.886948,43.259623],[76.887045,43.259101],[76.889661,43.259971],[76.893014,43.261192],[76.896091,43.262292],[76.899426,43.263343],[76.90162,43.264069],[76.903753,43.264694],[76.905306,43.265147],[76.905724,43.26525],[76.908562,43.265691],[76.910857,43.266191],[76.91269,43.266795],[76.913766,43.267193],[76.914802,43.267542],[76.915011,43.267601],[76.915926,43.267771],[76.916267,43.267843],[76.916723,43.267924],[76.917074,43.268003],[76.918059,43.268189],[76.918623,43.268285],[76.918645,43.26829],[76.918878,43.268333],[76.920591,43.268592],[76.921547,43.268733],[76.921981,43.268788],[76.922318,43.268826],[76.922827,43.268878],[76.923779,43.268957],[76.924105,43.268984],[76.92508,43.269072],[76.925985,43.269136],[76.927306,43.269195],[76.927456,43.269204],[76.928838,43.269273],[76.930386,43.269351],[76.931059,43.2694],[76.93286,43.269545],[76.935675,43.269749],[76.936782,43.269853],[76.937955,43.269954],[76.940163,43.270106],[76.944778,43.270408],[76.953966,43.271142],[76.955735,43.271359],[76.955882,43.27137],[76.957133,43.271463],[76.958349,43.271559],[76.960087,43.271684],[76.960805,43.271741],[76.96091,43.271749],[76.962157,43.271833],[76.963479,43.271922],[76.966214,43.272091],[76.966345,43.272087],[76.966703,43.272074],[76.966782,43.272081],[76.966778,43.272125],[76.966712,43.272741],[76.967281,43.273937],[76.966439,43.275189],[76.965802,43.275949],[76.965607,43.276218],[76.965741,43.276563],[76.965649,43.277039],[76.965546,43.277548],[76.965569,43.277783],[76.965583,43.277975],[76.965599,43.27825],[76.965655,43.278402],[76.965753,43.278538],[76.965964,43.278902],[76.966077,43.279083],[76.96621,43.279226],[76.966371,43.279373],[76.966559,43.279529],[76.966881,43.279771],[76.96705,43.27991],[76.967283,43.280295],[76.967366,43.280486],[76.967415,43.280603],[76.967474,43.2808],[76.967471,43.281009],[76.967495,43.28122],[76.967546,43.281521],[76.967592,43.281659],[76.967703,43.281832],[76.967833,43.282155],[76.96794,43.282364],[76.968072,43.282567],[76.968141,43.282792],[76.96825,43.282982],[76.968284,43.283097],[76.968233,43.283364],[76.968108,43.28365],[76.968091,43.283932],[76.968088,43.284143],[76.968085,43.284571],[76.968139,43.284703],[76.968259,43.284858],[76.96841,43.285002],[76.968643,43.28517],[76.968757,43.285259],[76.968844,43.285377],[76.968985,43.285561],[76.969062,43.28569],[76.969277,43.286143],[76.96929,43.286229],[76.96933,43.286328],[76.96947,43.286571],[76.969558,43.286724],[76.969909,43.287052],[76.970169,43.287279],[76.970293,43.287353],[76.970428,43.287305],[76.970505,43.287298],[76.97064,43.287256],[76.970945,43.287475],[76.971122,43.287588],[76.971213,43.287665],[76.971324,43.287824],[76.971557,43.288002],[76.971985,43.28815],[76.972134,43.288225],[76.97226,43.28832],[76.972224,43.288437],[76.972342,43.288517],[76.972516,43.288659],[76.972531,43.288719],[76.972573,43.288754],[76.972651,43.288765],[76.972902,43.288759],[76.973019,43.288765],[76.973047,43.288778],[76.973066,43.28886],[76.973072,43.288992],[76.973058,43.289135],[76.973035,43.289437],[76.973031,43.289563],[76.973079,43.289682],[76.973188,43.289798],[76.973256,43.289916],[76.973281,43.290078],[76.973267,43.290147],[76.973248,43.290246],[76.97329,43.290366],[76.973393,43.290555],[76.97346,43.290686],[76.97349,43.290799],[76.973467,43.290856],[76.973358,43.290973],[76.973214,43.291074],[76.972967,43.291183],[76.972966,43.291274],[76.973048,43.291325],[76.973196,43.291382],[76.973264,43.291408],[76.973484,43.291584],[76.973673,43.29171],[76.973727,43.291823],[76.973703,43.291909],[76.97355,43.292008],[76.97337,43.292123],[76.973165,43.292214],[76.973055,43.29231],[76.97318,43.292483],[76.97335,43.292738],[76.973357,43.292791],[76.973406,43.292921],[76.973684,43.29311],[76.968355,43.293342],[76.964742,43.293421],[76.963853,43.293408],[76.96301,43.293355],[76.961222,43.293019],[76.960814,43.2929],[76.960388,43.292847],[76.95918,43.292903],[76.957263,43.293383],[76.954301,43.294176],[76.952796,43.294521],[76.951292,43.294779],[76.949673,43.29464],[76.948031,43.294234],[76.944512,43.293317],[76.93914,43.29318],[76.93702,43.293174],[76.936199,43.293085],[76.935401,43.292906],[76.934097,43.294762],[76.933998,43.294895],[76.933514,43.295568],[76.933386,43.29575],[76.933185,43.296011],[76.932867,43.296446],[76.931972,43.297677],[76.931477,43.298357],[76.93129,43.298607],[76.931161,43.298778],[76.930372,43.299889],[76.930178,43.300304],[76.930127,43.300469],[76.9301,43.30061],[76.930094,43.300833],[76.93009,43.300932],[76.930053,43.301732],[76.930029,43.302664],[76.930018,43.304267],[76.930036,43.304562],[76.930083,43.304921],[76.93014,43.305372],[76.930706,43.309071],[76.930774,43.309555],[76.930804,43.309789],[76.930827,43.310041],[76.930836,43.310398],[76.930801,43.310749],[76.930585,43.311993],[76.930386,43.312974],[76.93033,43.313353],[76.930292,43.313749],[76.930258,43.314215],[76.930259,43.314638],[76.930264,43.314699],[76.9303,43.315136],[76.93041,43.316004],[76.930447,43.316302],[76.930538,43.317023],[76.930543,43.317061],[76.930576,43.317364],[76.930615,43.317643],[76.930625,43.317723],[76.930903,43.319891],[76.931018,43.320771],[76.931032,43.32088],[76.931136,43.321681],[76.931221,43.322336],[76.931567,43.324842],[76.931708,43.325902],[76.931898,43.327329],[76.93202,43.328116],[76.932215,43.329539],[76.932239,43.329695],[76.932258,43.329802],[76.932325,43.330102],[76.932392,43.330342],[76.932529,43.330669],[76.932607,43.330836],[76.932719,43.331077],[76.9328,43.33125],[76.932952,43.331612],[76.933042,43.331888],[76.932996,43.332032],[76.932974,43.332257],[76.932897,43.333695],[76.932817,43.33519],[76.932785,43.335961],[76.932753,43.336717],[76.932744,43.33694],[76.932755,43.337098],[76.932846,43.338418],[76.932877,43.338857],[76.932886,43.339588],[76.932854,43.339984],[76.932757,43.341151],[76.932756,43.341175],[76.932751,43.341233],[76.932711,43.341696],[76.932611,43.342482],[76.932478,43.343323],[76.932464,43.343651],[76.932458,43.343784],[76.932548,43.344356],[76.932685,43.345037],[76.932852,43.345578],[76.933028,43.345934],[76.933226,43.346277],[76.93347,43.346587],[76.933642,43.346801],[76.93387,43.347052],[76.936223,43.349423],[76.936058,43.349817],[76.937242,43.351335],[76.93768,43.352341],[76.939031,43.356019],[76.938965,43.356126],[76.939356,43.356815],[76.940413,43.359269],[76.940805,43.359163],[76.942822,43.358679],[76.94409,43.359045],[76.94401,43.359287],[76.944387,43.359659],[76.944526,43.360061],[76.944863,43.360364],[76.945159,43.360276],[76.945263,43.360632],[76.945604,43.360515],[76.946272,43.360183],[76.946488,43.360404],[76.946672,43.360163],[76.946957,43.360445],[76.946772,43.360744],[76.946848,43.360803],[76.947253,43.360541],[76.947577,43.360509],[76.948049,43.360553],[76.94815,43.360893],[76.948562,43.360719],[76.948894,43.361062],[76.949246,43.360955],[76.949451,43.361217],[76.949767,43.361199],[76.949627,43.36149],[76.950095,43.361577],[76.950371,43.362023],[76.950299,43.36232],[76.950606,43.362388],[76.951117,43.362819],[76.952665,43.364249],[76.952602,43.364467],[76.952246,43.364525],[76.952291,43.364768],[76.952574,43.36478],[76.952693,43.364908],[76.95305,43.364908],[76.952993,43.365073],[76.953208,43.36513],[76.953118,43.365389],[76.95382,43.365809],[76.953903,43.36642],[76.953646,43.366737],[76.95331,43.366715],[76.953378,43.367365],[76.95297,43.367431],[76.952891,43.367612],[76.953202,43.367859],[76.952734,43.368183],[76.953254,43.368637],[76.952863,43.368764],[76.952755,43.369114],[76.953287,43.369526],[76.953089,43.369756],[76.953395,43.36983],[76.953253,43.370106],[76.953888,43.370221],[76.955024,43.372069],[76.955312,43.371982],[76.955185,43.372298],[76.955482,43.372414],[76.955714,43.372265],[76.956675,43.372512],[76.956229,43.37298],[76.957263,43.372946],[76.957676,43.373409],[76.958127,43.37321],[76.957896,43.373595],[76.95841,43.373704],[76.958396,43.373997],[76.958628,43.374238],[76.958895,43.374289],[76.958826,43.374381],[76.958607,43.374425],[76.959094,43.37463],[76.959242,43.37451],[76.959685,43.374861],[76.95936,43.375129],[76.959767,43.375098],[76.959719,43.375398],[76.960084,43.375435],[76.960223,43.375938],[76.960603,43.375666],[76.960547,43.375934],[76.960762,43.37637],[76.961131,43.376533],[76.96132,43.376558],[76.961363,43.376845],[76.962332,43.377525],[76.962736,43.377968],[76.963277,43.378067],[76.963663,43.378279],[76.96344,43.37856],[76.963526,43.378791],[76.963998,43.378947],[76.964075,43.379165],[76.963646,43.379608],[76.9635,43.379755],[76.963076,43.37938],[76.961517,43.380121],[76.960611,43.379281],[76.960182,43.379426],[76.96124,43.380534],[76.957721,43.381722],[76.955941,43.37889],[76.952132,43.379848],[76.949997,43.379466],[76.944406,43.381217],[76.941285,43.381253],[76.940785,43.381128],[76.938546,43.379106],[76.938033,43.378573],[76.937284,43.379083],[76.937868,43.380113],[76.937778,43.380167],[76.936582,43.380295],[76.936323,43.379213],[76.934928,43.377831],[76.934317,43.376669],[76.933208,43.376884],[76.930948,43.377142],[76.930856,43.377293],[76.931563,43.379493],[76.9292,43.379822],[76.92713,43.374663],[76.928269,43.374448],[76.929923,43.374213],[76.929863,43.373715],[76.929661,43.373456],[76.929226,43.373154],[76.927888,43.37144],[76.927618,43.371174],[76.927351,43.370771],[76.927113,43.370799],[76.926312,43.370291],[76.925371,43.369937],[76.924991,43.369699],[76.924603,43.369362],[76.924534,43.369088],[76.924581,43.368653],[76.924494,43.368163],[76.924586,43.367971],[76.924775,43.367833],[76.924334,43.366907],[76.924095,43.36684],[76.923942,43.366884],[76.923827,43.366995],[76.923449,43.366998],[76.923188,43.366908],[76.922956,43.366759],[76.922848,43.366506],[76.92291,43.366265],[76.923011,43.365606],[76.922868,43.364987],[76.922621,43.364366],[76.922434,43.364392],[76.922062,43.364197],[76.921558,43.36348],[76.921289,43.363299],[76.921044,43.36319],[76.920611,43.363186],[76.92012,43.363123],[76.91981,43.363042],[76.919335,43.362799],[76.919031,43.36251],[76.919019,43.362364],[76.919192,43.362012],[76.919195,43.361834],[76.91864,43.361512],[76.918569,43.361047],[76.918488,43.360874],[76.918302,43.360669],[76.918036,43.360557],[76.917585,43.360439],[76.917137,43.359865],[76.917129,43.359611],[76.917232,43.359272],[76.91721,43.358969],[76.916942,43.358514],[76.91683,43.357657],[76.916517,43.357524],[76.915094,43.35736],[76.914232,43.356822],[76.913847,43.356589],[76.913105,43.356263],[76.912798,43.355597],[76.912522,43.355247],[76.912459,43.355054],[76.911713,43.355055],[76.909588,43.352096],[76.909483,43.352125],[76.90892,43.351997],[76.909045,43.351331],[76.908851,43.351277],[76.910916,43.350699],[76.911502,43.350477],[76.920589,43.348137],[76.921075,43.348099],[76.921258,43.347358],[76.920627,43.343918],[76.919672,43.341211],[76.918523,43.339374],[76.916137,43.336141],[76.911471,43.329965],[76.909664,43.327499],[76.908218,43.325725],[76.907418,43.324733],[76.906782,43.323843],[76.906282,43.322995],[76.904536,43.320056],[76.901422,43.314205],[76.899253,43.310048],[76.89707,43.305876],[76.896031,43.30382],[76.895141,43.301703],[76.893371,43.297548],[76.892145,43.294738],[76.89097,43.291953],[76.889225,43.288371],[76.889061,43.287987],[76.888916,43.287583],[76.888645,43.286755],[76.888167,43.285134],[76.887931,43.284173],[76.887722,43.283237],[76.887411,43.281348],[76.887112,43.2794],[76.886899,43.278447],[76.886806,43.277559],[76.8866,43.276242],[76.886551,43.27555],[76.886534,43.274786],[76.886433,43.271962],[76.886157,43.270415],[76.886005,43.268653]]]]}},{"type":"Feature","properties":{"id":"alatau","name":"Алатауский","nameEn":"Alatau"},"geometry":{"type":"MultiPolygon","coordinates":[[[[76.78266,43.319902],[76.773493,43.318647],[76.77148,43.318155],[76.771998,43.317159],[76.772396,43.316752],[76.760308,43.314005],[76.753601,43.31797],[76.741593,43.315419],[76.738278,43.314451],[76.738724,43.313583],[76.739533,43.312942],[76.739843,43.312562],[76.739988,43.311688],[76.739441,43.310732],[76.746363,43.306225],[76.748216,43.303091],[76.750407,43.303198],[76.75456,43.304279],[76.754678,43.303912],[76.752126,43.303155],[76.754043,43.297052],[76.754121,43.296949],[76.754999,43.297038],[76.758503,43.296008],[76.759285,43.295815],[76.759499,43.29546],[76.763167,43.29444],[76.763242,43.29462],[76.772017,43.29199],[76.780085,43.28939],[76.780413,43.289382],[76.781102,43.289177],[76.781241,43.288923],[76.782042,43.288636],[76.78163,43.288066],[76.784084,43.287303],[76.782639,43.286664],[76.78337,43.284963],[76.7845,43.283731],[76.784884,43.283897],[76.785082,43.281861],[76.785322,43.281602],[76.790979,43.284033],[76.790815,43.284809],[76.789606,43.285261],[76.790333,43.285758],[76.790474,43.286013],[76.790226,43.286482],[76.791769,43.288563],[76.792395,43.288451],[76.792657,43.287967],[76.792824,43.287842],[76.795041,43.287353],[76.796186,43.286851],[76.796918,43.285531],[76.796899,43.284675],[76.796937,43.283961],[76.797022,43.283516],[76.797204,43.283102],[76.797343,43.282934],[76.79772,43.282579],[76.798084,43.282452],[76.798139,43.281956],[76.799644,43.274358],[76.797852,43.27216],[76.797445,43.27198],[76.797481,43.2718],[76.78745,43.267072],[76.786931,43.266707],[76.786428,43.266153],[76.787124,43.265569],[76.791985,43.260899],[76.792001,43.260812],[76.789691,43.259646],[76.789842,43.259557],[76.789508,43.259372],[76.78944,43.259446],[76.78938,43.259433],[76.788497,43.256133],[76.788417,43.256036],[76.788426,43.255864],[76.788565,43.25568],[76.79245,43.253285],[76.792812,43.252944],[76.793039,43.252675],[76.793196,43.251962],[76.79314,43.250856],[76.793437,43.250397],[76.792682,43.250063],[76.791427,43.252512],[76.790598,43.252163],[76.7888,43.253262],[76.788309,43.252841],[76.787349,43.252732],[76.787105,43.252871],[76.78575,43.251622],[76.78584,43.251372],[76.784135,43.250978],[76.783879,43.251586],[76.783578,43.251528],[76.783242,43.251464],[76.782985,43.252138],[76.781733,43.25169],[76.781507,43.251715],[76.775765,43.249541],[76.7791,43.245349],[76.777648,43.244816],[76.785887,43.232287],[76.786234,43.232323],[76.78649,43.232169],[76.788888,43.232444],[76.793052,43.232835],[76.795437,43.233005],[76.796096,43.233063],[76.796774,43.233143],[76.796925,43.233157],[76.797084,43.233183],[76.797592,43.23241],[76.798208,43.232661],[76.798678,43.233125],[76.799085,43.233292],[76.799116,43.233391],[76.798895,43.233703],[76.799415,43.233911],[76.800164,43.234219],[76.801707,43.234855],[76.80292,43.235377],[76.804633,43.236103],[76.806522,43.236913],[76.807661,43.237401],[76.809551,43.238047],[76.81062,43.238672],[76.811889,43.239208],[76.813036,43.239708],[76.813365,43.239808],[76.814365,43.240046],[76.815713,43.240376],[76.818323,43.241012],[76.820431,43.24151],[76.8224,43.241972],[76.824011,43.24238],[76.825705,43.242786],[76.827055,43.243108],[76.828774,43.243508],[76.830165,43.243868],[76.832279,43.244408],[76.833473,43.244718],[76.835186,43.245155],[76.836175,43.245423],[76.837509,43.245843],[76.838953,43.246317],[76.83982,43.246647],[76.840858,43.247055],[76.841884,43.247501],[76.84214,43.247622],[76.842162,43.247633],[76.842409,43.24775],[76.84258,43.24783],[76.843254,43.248143],[76.845141,43.24903],[76.845737,43.249215],[76.846211,43.249341],[76.846698,43.249468],[76.84766,43.249715],[76.847768,43.249743],[76.848541,43.249942],[76.850504,43.250441],[76.851188,43.250601],[76.852534,43.250861],[76.855075,43.251465],[76.857662,43.252165],[76.858611,43.252615],[76.859961,43.2535],[76.862206,43.255029],[76.863944,43.256187],[76.865058,43.256673],[76.86742,43.257447],[76.868639,43.257816],[76.869769,43.258047],[76.871505,43.258205],[76.874057,43.258057],[76.880519,43.2577],[76.882001,43.257801],[76.883216,43.257953],[76.884308,43.258212],[76.885446,43.258558],[76.887045,43.259101],[76.886948,43.259623],[76.886911,43.260515],[76.886859,43.260983],[76.886679,43.261328],[76.885831,43.263154],[76.885766,43.263382],[76.886005,43.268653],[76.886157,43.270415],[76.886433,43.271962],[76.886534,43.274786],[76.886551,43.27555],[76.8866,43.276242],[76.886806,43.277559],[76.886899,43.278447],[76.887112,43.2794],[76.887411,43.281348],[76.887722,43.283237],[76.887931,43.284173],[76.888167,43.285134],[76.888645,43.286755],[76.888916,43.287583],[76.889061,43.287987],[76.889225,43.288371],[76.89097,43.291953],[76.892145,43.294738],[76.893371,43.297548],[76.895141,43.301703],[76.896031,43.30382],[76.89707,43.305876],[76.899253,43.310048],[76.901422,43.314205],[76.904536,43.320056],[76.906282,43.322995],[76.906782,43.323843],[76.907418,43.324733],[76.908218,43.325725],[76.909664,43.327499],[76.911471,43.329965],[76.916137,43.336141],[76.918523,43.339374],[76.919672,43.341211],[76.920627,43.343918],[76.921258,43.347358],[76.921075,43.348099],[76.920589,43.348137],[76.911502,43.350477],[76.910916,43.350699],[76.908851,43.351277],[76.907783,43.351644],[76.907273,43.351704],[76.906917,43.351548],[76.90681,43.351448],[76.905636,43.352024],[76.905246,43.351012],[76.904324,43.349828],[76.901295,43.347728],[76.892593,43.34355],[76.891755,43.340834],[76.890381,43.33913],[76.890391,43.336203],[76.888784,43.334634],[76.886569,43.335318],[76.885508,43.334422],[76.884827,43.333579],[76.883994,43.333109],[76.883067,43.331632],[76.882161,43.330973],[76.881191,43.329612],[76.880816,43.329008],[76.880925,43.328335],[76.880308,43.32781],[76.876332,43.329526],[76.876362,43.329696],[76.876271,43.329888],[76.8762,43.330132],[76.876322,43.330266],[76.876556,43.330369],[76.87684,43.330414],[76.877033,43.330399],[76.877257,43.330369],[76.877501,43.330243],[76.877552,43.330081],[76.877552,43.329911],[76.877613,43.329696],[76.877694,43.32957],[76.877888,43.329563],[76.878132,43.329637],[76.878406,43.329748],[76.878559,43.329903],[76.878569,43.330088],[76.878437,43.330229],[76.878304,43.330391],[76.878162,43.33051],[76.877938,43.33065],[76.877877,43.330761],[76.877999,43.330917],[76.87801,43.331138],[76.877837,43.331257],[76.877552,43.331279],[76.877277,43.331412],[76.877074,43.331649],[76.877003,43.331819],[76.87683,43.33213],[76.876758,43.332333],[76.87683,43.332588],[76.876983,43.332803],[76.877105,43.33318],[76.877359,43.33332],[76.877654,43.333365],[76.877999,43.333217],[76.878203,43.333232],[76.878437,43.333298],[76.878671,43.333298],[76.878904,43.333128],[76.878813,43.332884],[76.878813,43.332773],[76.878925,43.332625],[76.879108,43.332455],[76.879362,43.332285],[76.879535,43.332226],[76.879616,43.332344],[76.879494,43.332647],[76.879504,43.332832],[76.879718,43.333039],[76.879789,43.333187],[76.879647,43.333313],[76.879352,43.333453],[76.878754,43.333875],[76.878457,43.334186],[76.878315,43.334445],[76.878427,43.334629],[76.878594,43.334773],[76.878832,43.334791],[76.878943,43.334747],[76.879047,43.33466],[76.879166,43.334527],[76.879317,43.334501],[76.879439,43.334522],[76.879465,43.3346],[76.879569,43.334715],[76.87968,43.334778],[76.879774,43.334822],[76.879867,43.334859],[76.879971,43.334872],[76.88009,43.334838],[76.880144,43.334788],[76.880198,43.334723],[76.880209,43.334639],[76.88014,43.334524],[76.880047,43.334438],[76.879957,43.334386],[76.879953,43.334297],[76.879946,43.334203],[76.880015,43.33415],[76.88009,43.334153],[76.880248,43.334239],[76.880468,43.334441],[76.88065,43.33458],[76.880716,43.334699],[76.88068,43.334883],[76.880601,43.335055],[76.88055,43.335136],[76.880356,43.335134],[76.880158,43.335149],[76.880004,43.335115],[76.879849,43.33506],[76.879626,43.335016],[76.879468,43.335026],[76.879335,43.335092],[76.879249,43.335181],[76.879213,43.33527],[76.87918,43.335335],[76.879159,43.335408],[76.879109,43.335424],[76.878972,43.335351],[76.878781,43.335374],[76.878645,43.335387],[76.878501,43.335432],[76.878382,43.335515],[76.87831,43.335586],[76.878293,43.335693],[76.878303,43.335829],[76.878325,43.335931],[76.8784,43.336023],[76.878501,43.336093],[76.878713,43.336169],[76.878907,43.336198],[76.879152,43.336221],[76.879331,43.336219],[76.879479,43.336203],[76.87963,43.336151],[76.879759,43.33613],[76.880011,43.336112],[76.880237,43.336114],[76.880446,43.33613],[76.88055,43.336164],[76.880611,43.336229],[76.88064,43.336321],[76.880626,43.336412],[76.880615,43.336561],[76.880615,43.336708],[76.880608,43.336893],[76.880565,43.337035],[76.88046,43.337139],[76.880284,43.337202],[76.880202,43.337267],[76.88009,43.337435],[76.880039,43.337621],[76.880075,43.33805],[76.880111,43.338359],[76.880147,43.338568],[76.880219,43.338698],[76.880305,43.338761],[76.880442,43.338819],[76.880629,43.338824],[76.880758,43.338871],[76.880737,43.338944],[76.880593,43.339002],[76.880406,43.339132],[76.880298,43.339279],[76.880226,43.339431],[76.880176,43.339535],[76.880089,43.339598],[76.879967,43.339499],[76.879788,43.339373],[76.879644,43.339289],[76.87945,43.33931],[76.879284,43.339331],[76.879191,43.33942],[76.879148,43.33954],[76.878961,43.339561],[76.878723,43.339572],[76.87845,43.339577],[76.878278,43.339614],[76.878141,43.339708],[76.878119,43.339859],[76.87822,43.340011],[76.878472,43.340074],[76.878616,43.340021],[76.878687,43.340074],[76.878637,43.34021],[76.878508,43.34033],[76.878349,43.340419],[76.878234,43.340524],[76.878155,43.340649],[76.87814,43.340831],[76.878138,43.340979],[76.878285,43.341182],[76.878443,43.341238],[76.878646,43.341241],[76.878855,43.341141],[76.878997,43.341012],[76.879139,43.340945],[76.879236,43.340982],[76.879307,43.341116],[76.879354,43.341327],[76.87937,43.341453],[76.879359,43.341534],[76.879283,43.341599],[76.879189,43.341651],[76.879067,43.341704],[76.878988,43.341752],[76.878917,43.341819],[76.878876,43.341878],[76.878861,43.34195],[76.878876,43.342022],[76.87892,43.342085],[76.878978,43.342133],[76.879054,43.34215],[76.879133,43.342152],[76.87923,43.342148],[76.879359,43.342118],[76.879474,43.342083],[76.87957,43.342076],[76.879657,43.342091],[76.879812,43.342159],[76.879914,43.342242],[76.880008,43.342277],[76.88002,43.342346],[76.880005,43.342412],[76.879924,43.342466],[76.87986,43.342503],[76.879792,43.342516],[76.879698,43.342453],[76.879621,43.342416],[76.87956,43.342372],[76.879476,43.342333],[76.879354,43.342318],[76.879263,43.342327],[76.8791,43.342359],[76.879037,43.342414],[76.879026,43.342483],[76.879047,43.342592],[76.879093,43.34269],[76.879151,43.342795],[76.879222,43.342895],[76.879255,43.342965],[76.879283,43.34303],[76.879288,43.343089],[76.879273,43.343141],[76.87925,43.3432],[76.879212,43.34325],[76.879179,43.343314],[76.879148,43.343366],[76.879093,43.343436],[76.879014,43.343483],[76.878936,43.343531],[76.878854,43.343531],[76.878768,43.34355],[76.8787,43.343565],[76.878621,43.343602],[76.878552,43.343644],[76.878495,43.343686],[76.878427,43.343759],[76.878373,43.343806],[76.878315,43.343848],[76.87824,43.343871],[76.878164,43.343892],[76.878096,43.343913],[76.878024,43.343937],[76.877966,43.343986],[76.877916,43.344019],[76.877855,43.343968],[76.877811,43.343929],[76.877776,43.343897],[76.87774,43.343868],[76.877693,43.343844],[76.87764,43.343821],[76.877579,43.34379],[76.87751,43.343774],[76.877448,43.343754],[76.877356,43.343746],[76.877239,43.34375],[76.877107,43.34375],[76.876985,43.343743],[76.876889,43.343732],[76.876767,43.343721],[76.876639,43.343721],[76.876523,43.343754],[76.876492,43.343843],[76.876482,43.343924],[76.876558,43.343987],[76.876614,43.344035],[76.87669,43.344076],[76.876756,43.344124],[76.876801,43.344188],[76.876823,43.344259],[76.876821,43.344309],[76.876791,43.344377],[76.876747,43.344428],[76.876657,43.34445],[76.876556,43.34445],[76.876436,43.344447],[76.876306,43.344483],[76.876197,43.344529],[76.876122,43.344602],[76.876022,43.344703],[76.875962,43.344803],[76.875898,43.344904],[76.875831,43.345015],[76.875738,43.34507],[76.875644,43.34508],[76.875517,43.345064],[76.875296,43.345058],[76.875161,43.345118],[76.875094,43.345211],[76.875057,43.345314],[76.875086,43.345455],[76.875184,43.345569],[76.875408,43.345613],[76.875617,43.345635],[76.875797,43.345635],[76.875939,43.345716],[76.876028,43.345787],[76.876043,43.345863],[76.875953,43.345955],[76.875752,43.34601],[76.875438,43.346059],[76.875281,43.346227],[76.875288,43.346412],[76.875197,43.346528],[76.874406,43.346482],[76.873687,43.346472],[76.873235,43.346576],[76.873132,43.347028],[76.872191,43.347237],[76.86579,43.346897],[76.862631,43.336418],[76.860168,43.336479],[76.85966,43.335095],[76.859016,43.333573],[76.857673,43.333211],[76.857145,43.333234],[76.855746,43.334297],[76.854072,43.334536],[76.851934,43.33495],[76.851725,43.335395],[76.851307,43.336167],[76.851037,43.336515],[76.851232,43.336874],[76.851845,43.337472],[76.852652,43.338385],[76.85313,43.339353],[76.853154,43.340212],[76.853773,43.340636],[76.854296,43.341364],[76.854984,43.341984],[76.855866,43.342756],[76.855821,43.342974],[76.855582,43.34355],[76.855432,43.343745],[76.854222,43.344419],[76.853715,43.34461],[76.851792,43.344748],[76.8518,43.346522],[76.851043,43.34744],[76.850123,43.347504],[76.849027,43.348596],[76.848714,43.35016],[76.847647,43.351476],[76.847761,43.351957],[76.849095,43.351902],[76.849303,43.353506],[76.850527,43.354101],[76.8428,43.354688],[76.839838,43.354068],[76.837353,43.354089],[76.835066,43.354074],[76.830134,43.35296],[76.824605,43.352866],[76.818907,43.354124],[76.813389,43.354699],[76.811286,43.350875],[76.806516,43.345668],[76.803821,43.337831],[76.801831,43.333383],[76.801015,43.329372],[76.796843,43.329435],[76.79082,43.329357],[76.787239,43.325856],[76.786867,43.325533],[76.786711,43.325453],[76.784809,43.325427],[76.784662,43.325378],[76.784371,43.325167],[76.784196,43.324913],[76.784205,43.324804],[76.784778,43.324102],[76.78477,43.323987],[76.784729,43.323884],[76.784363,43.323418],[76.784213,43.32334],[76.784013,43.323273],[76.783664,43.323207],[76.78349,43.32314],[76.783381,43.322971],[76.78324,43.322547],[76.783232,43.322317],[76.783016,43.32164],[76.782891,43.32141],[76.782425,43.320823],[76.782384,43.320696],[76.782284,43.320133],[76.78266,43.319902]]]]}},{"type":"Feature","properties":{"id":"medeu","name":"Медеуский","nameEn":"Medeu"},"geometry":{"type":"MultiPolygon","coordinates":[[[[76.924814,43.215532],[76.924883,43.215469],[76.925038,43.215246],[76.925081,43.215103],[76.925083,43.214948],[76.925197,43.21495],[76.925242,43.214954],[76.925323,43.21498],[76.925414,43.215036],[76.92546,43.215077],[76.92562,43.21522],[76.92583,43.21533],[76.926245,43.215443],[76.92643,43.215474],[76.926692,43.215466],[76.926988,43.215447],[76.928082,43.215324],[76.928861,43.215261],[76.929503,43.215204],[76.929923,43.21514],[76.930228,43.215078],[76.931551,43.214757],[76.932495,43.214511],[76.932681,43.214462],[76.932895,43.214407],[76.933844,43.214178],[76.933985,43.214144],[76.934096,43.214118],[76.934541,43.214004],[76.93498,43.213901],[76.935657,43.21374],[76.936247,43.213592],[76.936429,43.213551],[76.936925,43.213441],[76.935754,43.211535],[76.93478,43.210224],[76.935927,43.210062],[76.938818,43.20865],[76.940975,43.206576],[76.941266,43.206298],[76.940794,43.205625],[76.93982,43.205944],[76.938633,43.20626],[76.937315,43.206563],[76.936605,43.206812],[76.934955,43.207243],[76.934477,43.207452],[76.934172,43.207536],[76.933126,43.208018],[76.932974,43.208034],[76.932804,43.207992],[76.932389,43.207614],[76.932001,43.207414],[76.931049,43.207338],[76.931152,43.207063],[76.931634,43.20472],[76.931691,43.204275],[76.932559,43.204465],[76.933318,43.20223],[76.934439,43.20143],[76.936007,43.201225],[76.939118,43.199982],[76.93972,43.199564],[76.940019,43.199508],[76.941229,43.198302],[76.941638,43.19787],[76.941807,43.197815],[76.942228,43.197677],[76.942533,43.197649],[76.942941,43.19753],[76.943414,43.197026],[76.943725,43.196465],[76.943947,43.196056],[76.944203,43.195404],[76.944642,43.195035],[76.944934,43.194682],[76.945427,43.194486],[76.946058,43.193799],[76.946723,43.193158],[76.947425,43.192169],[76.947801,43.191926],[76.948317,43.191827],[76.948612,43.191671],[76.948764,43.191519],[76.949349,43.191193],[76.950046,43.190699],[76.950384,43.189456],[76.950643,43.188998],[76.95137,43.188345],[76.951633,43.188264],[76.952241,43.18738],[76.951899,43.187325],[76.95362,43.184696],[76.953812,43.18475],[76.95431,43.183834],[76.954776,43.184024],[76.954867,43.183935],[76.955082,43.183401],[76.955538,43.182746],[76.956168,43.182344],[76.956537,43.182148],[76.956852,43.182088],[76.957218,43.182089],[76.957486,43.182155],[76.958599,43.181632],[76.95955,43.181344],[76.96006,43.181116],[76.960157,43.180994],[76.958532,43.179236],[76.959499,43.17722],[76.959217,43.177067],[76.958367,43.176881],[76.958631,43.176713],[76.959548,43.176138],[76.959933,43.176003],[76.960554,43.175853],[76.96121,43.175712],[76.961974,43.175494],[76.962427,43.175314],[76.962627,43.175183],[76.963247,43.17465],[76.963401,43.174538],[76.963561,43.174505],[76.963555,43.173466],[76.963665,43.172754],[76.963628,43.172395],[76.963646,43.171998],[76.963727,43.171738],[76.963942,43.171317],[76.964205,43.171021],[76.963318,43.17079],[76.963501,43.170324],[76.964166,43.169264],[76.964507,43.168305],[76.96478,43.167925],[76.96505,43.167248],[76.965047,43.166791],[76.968283,43.15974],[76.968849,43.159097],[76.968073,43.158347],[76.967958,43.15542],[76.967279,43.155775],[76.966689,43.157708],[76.966509,43.157839],[76.950379,43.144451],[76.953007,43.140259],[76.953335,43.13816],[76.959624,43.127668],[76.947309,43.12746],[76.916423,43.122215],[76.913053,43.124296],[76.912754,43.124248],[76.912655,43.124551],[76.911254,43.125775],[76.911036,43.125774],[76.911019,43.12399],[76.912296,43.122563],[76.91318,43.121118],[76.913521,43.120358],[76.914453,43.119115],[76.91476,43.119181],[76.915724,43.118362],[76.915747,43.118263],[76.917371,43.116496],[76.924017,43.116962],[76.931183,43.115378],[76.931064,43.115089],[76.923861,43.116611],[76.917667,43.116276],[76.91767,43.11557],[76.917739,43.115184],[76.918293,43.114432],[76.91888,43.113502],[76.919469,43.112099],[76.919499,43.111505],[76.919752,43.111209],[76.919667,43.111021],[76.918825,43.110469],[76.920154,43.108838],[76.921357,43.108168],[76.921916,43.107316],[76.922678,43.106714],[76.923354,43.106381],[76.9237,43.106423],[76.925323,43.105987],[76.925748,43.105723],[76.927025,43.106469],[76.927446,43.106015],[76.927226,43.105401],[76.92778,43.103662],[76.927645,43.103305],[76.929661,43.10304],[76.93045,43.102752],[76.931365,43.102828],[76.932807,43.103483],[76.936873,43.103163],[76.938151,43.103753],[76.944864,43.104382],[76.947192,43.102711],[76.955858,43.095237],[76.958324,43.09483],[76.963213,43.089858],[76.965023,43.089037],[76.966683,43.087798],[76.967555,43.087591],[76.968708,43.087847],[76.970208,43.087551],[76.972857,43.085944],[76.975547,43.085419],[76.97995,43.083015],[76.982459,43.079279],[76.984041,43.077468],[76.989468,43.075042],[76.990296,43.073917],[76.991822,43.071437],[76.991759,43.068468],[76.991406,43.06609],[76.988796,43.064067],[76.987452,43.062752],[76.986734,43.060721],[76.986794,43.058722],[76.988057,43.05917],[76.989076,43.058912],[76.990138,43.058068],[76.991131,43.057397],[76.991672,43.056807],[76.991838,43.056128],[76.991788,43.055287],[76.991682,43.054745],[76.991441,43.054226],[76.991043,43.053757],[76.990944,43.053324],[76.991527,43.052989],[76.992604,43.052669],[76.993532,43.052284],[76.994279,43.051826],[76.994856,43.051046],[76.994845,43.049435],[76.994215,43.048465],[76.993803,43.047339],[77.029911,43.043144],[77.032428,43.038161],[77.056945,43.032844],[77.077184,43.034066],[77.089632,43.070938],[77.083079,43.091364],[77.080035,43.101142],[77.079925,43.114982],[77.080091,43.115391],[77.080637,43.115281],[77.081517,43.115259],[77.083657,43.115969],[77.085589,43.116376],[77.086445,43.11649],[77.087286,43.116491],[77.08848,43.116088],[77.09016,43.11241],[77.091785,43.112119],[77.098209,43.115214],[77.100241,43.114145],[77.101839,43.112422],[77.10975,43.112848],[77.10945,43.110529],[77.110947,43.110321],[77.113725,43.109935],[77.113601,43.113019],[77.121017,43.117003],[77.12121,43.117166],[77.121246,43.117432],[77.121193,43.11759],[77.120968,43.117713],[77.120641,43.117732],[77.120297,43.11766],[77.113233,43.113861],[77.11256,43.115903],[77.110494,43.116494],[77.107377,43.117656],[77.09717,43.124284],[77.092335,43.127999],[77.091627,43.127357],[77.090757,43.127248],[77.08956,43.127513],[77.087943,43.127638],[77.086729,43.128645],[77.084632,43.129646],[77.082633,43.130339],[77.079079,43.132156],[77.078343,43.132766],[77.078046,43.1337],[77.078188,43.134496],[77.076922,43.135875],[77.076217,43.13706],[77.075939,43.137872],[77.075508,43.138211],[77.072089,43.139126],[77.071246,43.138917],[77.068631,43.140775],[77.068933,43.141087],[77.068072,43.141537],[77.066972,43.142632],[77.066084,43.144023],[77.064971,43.144136],[77.063732,43.144405],[77.062937,43.144911],[77.066754,43.151412],[77.064457,43.153607],[77.065155,43.153538],[77.065259,43.153982],[77.064497,43.154055],[77.061791,43.157134],[77.060226,43.160052],[77.063198,43.160421],[77.067354,43.162201],[77.068404,43.163145],[77.068787,43.164112],[77.069781,43.165022],[77.070097,43.165099],[77.071368,43.164843],[77.072757,43.16393],[77.075561,43.163029],[77.076054,43.162974],[77.076519,43.162891],[77.076681,43.162717],[77.077335,43.162375],[77.077701,43.162198],[77.078276,43.161807],[77.078989,43.16146],[77.079368,43.161231],[77.07991,43.160597],[77.080088,43.160113],[77.08063,43.15954],[77.081978,43.159073],[77.082332,43.159014],[77.082831,43.158866],[77.083109,43.158823],[77.083537,43.158784],[77.083986,43.158838],[77.084435,43.158763],[77.084828,43.158667],[77.085025,43.158698],[77.085418,43.15879],[77.085614,43.15896],[77.08589,43.159069],[77.086016,43.159216],[77.086189,43.159315],[77.086362,43.159471],[77.08654,43.159598],[77.086577,43.159731],[77.086624,43.159748],[77.086668,43.15979],[77.086776,43.159894],[77.086967,43.160074],[77.087129,43.160238],[77.087337,43.160294],[77.087715,43.160347],[77.088028,43.160548],[77.088131,43.160777],[77.088304,43.160831],[77.088781,43.160811],[77.089281,43.160647],[77.089655,43.160668],[77.090132,43.160767],[77.090492,43.160739],[77.090903,43.160552],[77.091375,43.160439],[77.091885,43.160439],[77.09231,43.160504],[77.092824,43.160569],[77.093198,43.160473],[77.093605,43.160255],[77.094161,43.16004],[77.094619,43.159914],[77.095082,43.159679],[77.095376,43.159338],[77.095624,43.15914],[77.095918,43.159031],[77.096451,43.15884],[77.096961,43.158666],[77.097921,43.158267],[77.099111,43.158074],[77.099573,43.157987],[77.100049,43.158209],[77.100419,43.158151],[77.100856,43.158103],[77.101371,43.157524],[77.102019,43.157215],[77.102442,43.157119],[77.102826,43.156839],[77.103222,43.156598],[77.10342,43.156415],[77.104018,43.156107],[77.104363,43.155579],[77.104985,43.155534],[77.105745,43.155188],[77.106212,43.154869],[77.106856,43.154482],[77.106909,43.15418],[77.106927,43.15393],[77.107391,43.153276],[77.108873,43.151984],[77.109369,43.151014],[77.117073,43.151643],[77.116806,43.153636],[77.119247,43.157087],[77.120983,43.157997],[77.122217,43.16684],[77.128283,43.168984],[77.134891,43.166537],[77.147014,43.178158],[77.145486,43.187856],[77.145964,43.189648],[77.145077,43.190974],[77.144234,43.191034],[77.138222,43.198093],[77.124385,43.201001],[77.119655,43.204074],[77.118421,43.203003],[77.115831,43.201878],[77.114276,43.201514],[77.113379,43.199261],[77.113873,43.189697],[77.114409,43.189316],[77.11482,43.183868],[77.113976,43.181591],[77.113019,43.180404],[77.111606,43.180129],[77.110699,43.179173],[77.108764,43.178216],[77.106622,43.177637],[77.105441,43.17566],[77.104522,43.175303],[77.103351,43.175185],[77.101928,43.175253],[77.098653,43.176084],[77.096851,43.183981],[77.071758,43.194522],[77.06881,43.196927],[77.059123,43.216773],[77.053593,43.22396],[77.053248,43.225093],[77.052232,43.225883],[77.052321,43.226488],[77.051969,43.22661],[77.051525,43.226302],[77.05063,43.226265],[77.049637,43.226812],[77.049549,43.227738],[77.047539,43.230177],[77.046544,43.230013],[77.045007,43.231169],[77.042098,43.235619],[77.04126,43.235054],[77.040351,43.234702],[77.039769,43.234051],[77.03944,43.234068],[77.03887,43.234894],[77.039116,43.235084],[77.039657,43.237235],[77.037068,43.239876],[77.035589,43.241055],[77.035324,43.24155],[77.035767,43.242399],[77.036338,43.242828],[77.035846,43.244038],[77.035077,43.244059],[77.034227,43.243951],[77.033823,43.24402],[77.033486,43.244668],[77.033273,43.245489],[77.033071,43.245974],[77.032364,43.246185],[77.032067,43.248596],[77.030354,43.247656],[77.029131,43.249381],[77.028743,43.249576],[77.02679,43.249117],[77.025998,43.249589],[77.025643,43.249681],[77.024969,43.250629],[77.024519,43.251117],[77.024096,43.251395],[77.023736,43.251448],[77.01678,43.259614],[77.016396,43.259561],[77.015665,43.26003],[77.015228,43.259961],[77.014658,43.259683],[77.014123,43.259569],[77.013007,43.259971],[77.012411,43.260473],[77.012055,43.260437],[77.01079,43.260549],[77.010316,43.260702],[77.009882,43.26105],[77.009063,43.261939],[77.008751,43.26189],[77.00564,43.262042],[77.004647,43.262687],[77.00514,43.26278],[77.00654,43.264681],[77.006579,43.265025],[77.006404,43.266556],[77.007028,43.266555],[77.009297,43.265726],[77.009744,43.26567],[77.010116,43.265488],[77.010545,43.265434],[77.011422,43.265092],[77.012165,43.265063],[77.012738,43.264923],[77.013576,43.264873],[77.013979,43.265462],[77.01448,43.266106],[77.014948,43.266405],[77.014544,43.267037],[77.014404,43.268039],[77.014069,43.269045],[77.013582,43.269835],[77.014329,43.273229],[77.013791,43.274473],[77.013515,43.276221],[77.013559,43.276897],[77.013666,43.277511],[77.01289,43.278425],[77.012742,43.279077],[77.012486,43.279351],[77.01212,43.280469],[77.014646,43.281977],[77.01418,43.282233],[77.014263,43.282863],[77.013892,43.283649],[77.011475,43.28296],[77.010168,43.290488],[77.01957,43.292963],[77.018431,43.297284],[77.021291,43.299142],[77.028885,43.304351],[77.030917,43.305262],[77.032703,43.306228],[77.040719,43.31019],[77.026185,43.319436],[77.025835,43.319598],[77.025095,43.319948],[77.015177,43.308003],[77.012528,43.305582],[76.998305,43.296289],[76.997085,43.296464],[76.990971,43.297536],[76.979531,43.295627],[76.977647,43.294811],[76.976745,43.294407],[76.974833,43.293619],[76.974624,43.293627],[76.973824,43.29361],[76.973684,43.29311],[76.973406,43.292921],[76.973357,43.292791],[76.97335,43.292738],[76.97318,43.292483],[76.973055,43.29231],[76.973165,43.292214],[76.97337,43.292123],[76.97355,43.292008],[76.973703,43.291909],[76.973727,43.291823],[76.973673,43.29171],[76.973484,43.291584],[76.973264,43.291408],[76.973196,43.291382],[76.973048,43.291325],[76.972966,43.291274],[76.972967,43.291183],[76.973214,43.291074],[76.973358,43.290973],[76.973467,43.290856],[76.97349,43.290799],[76.97346,43.290686],[76.973393,43.290555],[76.97329,43.290366],[76.973248,43.290246],[76.973267,43.290147],[76.973281,43.290078],[76.973256,43.289916],[76.973188,43.289798],[76.973079,43.289682],[76.973031,43.289563],[76.973035,43.289437],[76.973058,43.289135],[76.973072,43.288992],[76.973066,43.28886],[76.973047,43.288778],[76.973019,43.288765],[76.972902,43.288759],[76.972651,43.288765],[76.972573,43.288754],[76.972531,43.288719],[76.972516,43.288659],[76.972342,43.288517],[76.972224,43.288437],[76.97226,43.28832],[76.972134,43.288225],[76.971985,43.28815],[76.971557,43.288002],[76.971324,43.287824],[76.971213,43.287665],[76.971122,43.287588],[76.970945,43.287475],[76.97064,43.287256],[76.970505,43.287298],[76.970428,43.287305],[76.970293,43.287353],[76.970169,43.287279],[76.969909,43.287052],[76.969558,43.286724],[76.96947,43.286571],[76.96933,43.286328],[76.96929,43.286229],[76.969277,43.286143],[76.969062,43.28569],[76.968985,43.285561],[76.968844,43.285377],[76.968757,43.285259],[76.968643,43.28517],[76.96841,43.285002],[76.968259,43.284858],[76.968139,43.284703],[76.968085,43.284571],[76.968088,43.284143],[76.968091,43.283932],[76.968108,43.28365],[76.968233,43.283364],[76.968284,43.283097],[76.96825,43.282982],[76.968141,43.282792],[76.968072,43.282567],[76.96794,43.282364],[76.967833,43.282155],[76.967703,43.281832],[76.967592,43.281659],[76.967546,43.281521],[76.967495,43.28122],[76.967471,43.281009],[76.967474,43.2808],[76.967415,43.280603],[76.967366,43.280486],[76.967283,43.280295],[76.96705,43.27991],[76.966881,43.279771],[76.966559,43.279529],[76.966371,43.279373],[76.96621,43.279226],[76.966077,43.279083],[76.965964,43.278902],[76.965753,43.278538],[76.965655,43.278402],[76.965599,43.27825],[76.965583,43.277975],[76.965569,43.277783],[76.965546,43.277548],[76.965649,43.277039],[76.965741,43.276563],[76.965607,43.276218],[76.965802,43.275949],[76.966439,43.275189],[76.967281,43.273937],[76.966712,43.272741],[76.966778,43.272125],[76.966782,43.272081],[76.966703,43.272074],[76.966345,43.272087],[76.966214,43.272091],[76.963479,43.271922],[76.962157,43.271833],[76.96091,43.271749],[76.960805,43.271741],[76.960087,43.271684],[76.958349,43.271559],[76.957133,43.271463],[76.955882,43.27137],[76.955735,43.271359],[76.953966,43.271142],[76.944778,43.270408],[76.944795,43.27027],[76.94485,43.269706],[76.944923,43.269113],[76.945035,43.268212],[76.945165,43.267344],[76.945423,43.265306],[76.945578,43.264067],[76.945717,43.263073],[76.946064,43.259994],[76.946287,43.258343],[76.946473,43.256612],[76.946728,43.255013],[76.94696,43.253238],[76.946974,43.253131],[76.947171,43.251625],[76.947375,43.249898],[76.947596,43.248211],[76.94783,43.246492],[76.948054,43.244708],[76.948167,43.243845],[76.948296,43.242734],[76.948301,43.242693],[76.948317,43.242556],[76.948329,43.242465],[76.948336,43.242405],[76.948506,43.241142],[76.948576,43.240409],[76.948725,43.239285],[76.948734,43.239212],[76.948758,43.239036],[76.948796,43.238732],[76.948866,43.238213],[76.948957,43.23752],[76.949084,43.236659],[76.949197,43.235809],[76.949238,43.235416],[76.949304,43.234914],[76.949369,43.234431],[76.949444,43.233924],[76.94946,43.233809],[76.949525,43.233255],[76.949562,43.23298],[76.949572,43.232924],[76.949654,43.232313],[76.949784,43.231431],[76.949939,43.230338],[76.950074,43.229295],[76.950118,43.229036],[76.950127,43.228974],[76.950181,43.228548],[76.950253,43.228073],[76.949854,43.228044],[76.947595,43.227945],[76.946811,43.227933],[76.946217,43.22793],[76.945636,43.227947],[76.944875,43.227976],[76.944632,43.227976],[76.944366,43.227957],[76.944091,43.227916],[76.943818,43.227856],[76.943611,43.227788],[76.943277,43.227635],[76.942911,43.227442],[76.942244,43.227024],[76.940806,43.226056],[76.939638,43.225284],[76.936492,43.223172],[76.935583,43.222539],[76.934747,43.22198],[76.933728,43.2213],[76.933027,43.220824],[76.932426,43.220424],[76.931961,43.220112],[76.931207,43.219607],[76.930736,43.219293],[76.930291,43.218996],[76.929697,43.218589],[76.928891,43.218051],[76.928376,43.217713],[76.92784,43.217374],[76.927254,43.217],[76.926698,43.21665],[76.92621,43.216354],[76.92569,43.216048],[76.925276,43.215812],[76.924814,43.215532]]],[[[77.133468,43.365626],[77.133076,43.366245],[77.132525,43.366759],[77.131686,43.367196],[77.127341,43.364532],[77.131606,43.363059],[77.131483,43.361206],[77.131312,43.360988],[77.131321,43.360168],[77.130675,43.359011],[77.131384,43.359632],[77.131701,43.359353],[77.132002,43.359487],[77.132551,43.359085],[77.133284,43.359366],[77.133385,43.35887],[77.133475,43.357169],[77.133884,43.356757],[77.135745,43.354319],[77.137768,43.351669],[77.138946,43.350466],[77.139718,43.350007],[77.140546,43.349581],[77.141315,43.348405],[77.140827,43.347877],[77.14166,43.347773],[77.1417,43.347159],[77.141859,43.346309],[77.142254,43.345343],[77.142278,43.34442],[77.142407,43.344063],[77.142607,43.343755],[77.142581,43.343544],[77.142933,43.34332],[77.142423,43.342962],[77.142973,43.342599],[77.142361,43.34226],[77.141203,43.343398],[77.140706,43.344437],[77.140467,43.344409],[77.140502,43.344261],[77.139461,43.344114],[77.138295,43.34215],[77.138273,43.341919],[77.13905,43.341417],[77.13924,43.34005],[77.136729,43.339957],[77.137017,43.339316],[77.138058,43.338828],[77.140379,43.337412],[77.141032,43.33681],[77.143709,43.335462],[77.146237,43.3331],[77.149458,43.334552],[77.152159,43.337888],[77.152116,43.338648],[77.152934,43.338529],[77.156077,43.338557],[77.158369,43.33907],[77.160571,43.339843],[77.1627,43.340967],[77.164064,43.342419],[77.165778,43.345573],[77.166754,43.344844],[77.166351,43.346261],[77.166431,43.346476],[77.166477,43.347469],[77.166726,43.347539],[77.16652,43.348821],[77.166357,43.348833],[77.165897,43.350337],[77.165537,43.350804],[77.165485,43.351147],[77.165494,43.351426],[77.165437,43.3515],[77.165267,43.351561],[77.165139,43.351661],[77.165108,43.35195],[77.164942,43.352116],[77.164885,43.35221],[77.16487,43.352255],[77.164885,43.352334],[77.164924,43.35238],[77.164919,43.352421],[77.164878,43.352458],[77.164725,43.352565],[77.164731,43.352662],[77.164719,43.352746],[77.164636,43.35308],[77.164548,43.353306],[77.164475,43.353439],[77.16438,43.353506],[77.164304,43.353563],[77.164342,43.353644],[77.16434,43.353725],[77.164252,43.353774],[77.164129,43.353766],[77.163912,43.353894],[77.163803,43.353933],[77.16376,43.353987],[77.163706,43.354023],[77.163618,43.354096],[77.163635,43.354156],[77.163559,43.354218],[77.163448,43.354259],[77.163398,43.354318],[77.163365,43.354363],[77.163379,43.354456],[77.163289,43.35449],[77.163147,43.354456],[77.163062,43.354573],[77.163135,43.354697],[77.163048,43.354792],[77.162674,43.354921],[77.162169,43.355533],[77.161554,43.356454],[77.161209,43.356515],[77.161216,43.357363],[77.160699,43.357419],[77.160598,43.358869],[77.157351,43.358973],[77.153318,43.357787],[77.152229,43.358285],[77.151227,43.359201],[77.150409,43.360348],[77.149647,43.360794],[77.148417,43.361274],[77.146465,43.361562],[77.145844,43.361265],[77.144301,43.362289],[77.143267,43.363575],[77.142334,43.365187],[77.142346,43.36603],[77.142244,43.366258],[77.141208,43.366162],[77.141881,43.365298],[77.143376,43.362696],[77.142752,43.362206],[77.141751,43.363121],[77.140608,43.363646],[77.13952,43.363713],[77.138635,43.363404],[77.138578,43.363356],[77.138384,43.363278],[77.138324,43.363307],[77.138194,43.363528],[77.138137,43.36357],[77.138047,43.363601],[77.137926,43.363584],[77.137796,43.363511],[77.137722,43.36339],[77.137352,43.363453],[77.136997,43.363523],[77.136749,43.363523],[77.136582,43.363459],[77.136442,43.363318],[77.136318,43.363277],[77.136194,43.363284],[77.136018,43.363436],[77.135941,43.363487],[77.13584,43.363519],[77.135636,43.363501],[77.135559,43.363493],[77.135499,43.363523],[77.135377,43.363635],[77.135283,43.363679],[77.134895,43.363629],[77.134675,43.36377],[77.134558,43.363875],[77.134469,43.36426],[77.134303,43.36417],[77.134026,43.364157],[77.134012,43.364434],[77.133722,43.364705],[77.133684,43.365086],[77.133584,43.365227],[77.133311,43.3654],[77.133468,43.365626]]]]}},{"type":"Feature","properties":{"id":"almaly","name":"Алмалинский","nameEn":"Almaly"},"geometry":{"type":"MultiPolygon","coordinates":[[[[76.864162,43.247929],[76.864282,43.247733],[76.864549,43.24712],[76.864752,43.247066],[76.864886,43.247118],[76.864994,43.247118],[76.865295,43.247116],[76.865475,43.247088],[76.865751,43.246992],[76.865829,43.246892],[76.86586,43.246811],[76.865844,43.246694],[76.865655,43.246588],[76.86531,43.246453],[76.865217,43.246292],[76.865241,43.246125],[76.865328,43.24603],[76.865452,43.245831],[76.865497,43.245673],[76.865639,43.245478],[76.865876,43.245259],[76.866239,43.245052],[76.866346,43.244966],[76.866372,43.244747],[76.866381,43.244559],[76.86643,43.244214],[76.866625,43.243993],[76.866877,43.243866],[76.867053,43.243796],[76.867155,43.243735],[76.867231,43.243626],[76.867252,43.243491],[76.867323,43.243399],[76.867299,43.243308],[76.86726,43.243051],[76.86728,43.242783],[76.867363,43.242494],[76.867884,43.242074],[76.868093,43.241772],[76.868005,43.241426],[76.867875,43.241322],[76.867662,43.241189],[76.867392,43.24104],[76.867321,43.24085],[76.867343,43.240419],[76.867303,43.24024],[76.867205,43.240001],[76.867254,43.239773],[76.867514,43.239447],[76.867881,43.239281],[76.868116,43.239061],[76.868522,43.238815],[76.86892,43.238725],[76.869033,43.238617],[76.869107,43.238522],[76.869271,43.238377],[76.869484,43.238254],[76.869619,43.238148],[76.869665,43.238045],[76.869667,43.237834],[76.869675,43.237736],[76.869739,43.237618],[76.869858,43.237459],[76.870021,43.237215],[76.869913,43.236279],[76.869913,43.236208],[76.869963,43.234908],[76.869946,43.234331],[76.869949,43.233998],[76.869996,43.233844],[76.87013,43.233665],[76.870642,43.233262],[76.87083,43.233142],[76.871677,43.233796],[76.872323,43.234251],[76.872739,43.23455],[76.873161,43.234812],[76.873757,43.235164],[76.874499,43.235578],[76.875347,43.235987],[76.875876,43.236257],[76.876944,43.236667],[76.877967,43.237044],[76.878748,43.237269],[76.880839,43.237658],[76.882076,43.237838],[76.883964,43.238088],[76.88596,43.238292],[76.888374,43.238439],[76.898406,43.239191],[76.903801,43.239564],[76.904485,43.239611],[76.905786,43.239704],[76.906977,43.239791],[76.907762,43.239839],[76.908817,43.239899],[76.909986,43.239985],[76.91114,43.240064],[76.91236,43.240143],[76.914157,43.24028],[76.914692,43.240277],[76.916476,43.240318],[76.917533,43.240366],[76.918972,43.240467],[76.920234,43.24056],[76.923627,43.240792],[76.926617,43.240988],[76.92827,43.24109],[76.929888,43.241217],[76.931496,43.241328],[76.933402,43.241434],[76.936069,43.241625],[76.937243,43.241704],[76.938219,43.241763],[76.939022,43.241816],[76.94061,43.241924],[76.942559,43.242051],[76.943511,43.242135],[76.94522,43.242242],[76.94667,43.242338],[76.947727,43.242421],[76.948329,43.242465],[76.948317,43.242556],[76.948301,43.242693],[76.948296,43.242734],[76.948167,43.243845],[76.948054,43.244708],[76.947836,43.246467],[76.947596,43.248211],[76.947375,43.249898],[76.947171,43.251625],[76.946974,43.253131],[76.94696,43.253238],[76.946728,43.255013],[76.946473,43.256612],[76.946287,43.258343],[76.946064,43.259994],[76.945717,43.263073],[76.945578,43.264067],[76.945423,43.265306],[76.945165,43.267344],[76.945035,43.268212],[76.944923,43.269113],[76.94485,43.269706],[76.944795,43.27027],[76.944778,43.270408],[76.940163,43.270106],[76.937955,43.269954],[76.936782,43.269853],[76.935675,43.269749],[76.93286,43.269545],[76.931059,43.2694],[76.930386,43.269351],[76.928838,43.269273],[76.927456,43.269204],[76.927306,43.269195],[76.925985,43.269136],[76.92508,43.269072],[76.924105,43.268984],[76.923779,43.268957],[76.922827,43.268878],[76.922318,43.268826],[76.921981,43.268788],[76.921547,43.268733],[76.920591,43.268592],[76.918878,43.268333],[76.918645,43.26829],[76.918623,43.268285],[76.918059,43.268189],[76.917074,43.268003],[76.916723,43.267924],[76.916267,43.267843],[76.915926,43.267771],[76.915011,43.267601],[76.914802,43.267542],[76.913766,43.267193],[76.91269,43.266795],[76.910857,43.266191],[76.908562,43.265691],[76.905724,43.26525],[76.905306,43.265147],[76.903753,43.264694],[76.90162,43.264069],[76.899426,43.263343],[76.896091,43.262292],[76.893014,43.261192],[76.889661,43.259971],[76.886908,43.259049],[76.885446,43.258558],[76.884308,43.258212],[76.883216,43.257953],[76.882001,43.257801],[76.880519,43.2577],[76.874057,43.258057],[76.871505,43.258205],[76.869769,43.258047],[76.868639,43.257816],[76.86742,43.257447],[76.865058,43.256673],[76.865133,43.256512],[76.865206,43.256275],[76.863659,43.249324],[76.864016,43.248076],[76.864162,43.247929]]]]}},{"type":"Feature","properties":{"id":"auezov","name":"Ауэзовский","nameEn":"Auezov"},"geometry":{"type":"MultiPolygon","coordinates":[[[[76.809551,43.238047],[76.809831,43.237711],[76.810145,43.237229],[76.810546,43.236694],[76.810947,43.236085],[76.81123,43.235375],[76.811395,43.235],[76.812009,43.233932],[76.812453,43.233413],[76.812744,43.233264],[76.813035,43.232649],[76.813414,43.231939],[76.813668,43.231462],[76.813945,43.23099],[76.814374,43.230581],[76.814483,43.229913],[76.814801,43.229663],[76.81488,43.229526],[76.815058,43.229325],[76.815621,43.228887],[76.8162,43.228427],[76.816881,43.227895],[76.817369,43.22764],[76.818354,43.227143],[76.819063,43.226783],[76.819443,43.226567],[76.819951,43.22626],[76.82073,43.22569],[76.821527,43.225149],[76.821851,43.224807],[76.822049,43.224491],[76.822316,43.223966],[76.822451,43.223786],[76.822866,43.223214],[76.823186,43.222706],[76.823418,43.222288],[76.823664,43.221892],[76.823892,43.221616],[76.824463,43.220655],[76.824811,43.21993],[76.825149,43.219287],[76.825368,43.219041],[76.82561,43.218707],[76.825736,43.218501],[76.82601,43.217984],[76.826139,43.217828],[76.826412,43.217608],[76.826688,43.216849],[76.826929,43.216412],[76.827259,43.215778],[76.827445,43.215278],[76.827707,43.214887],[76.828084,43.214262],[76.828685,43.213667],[76.829411,43.21315],[76.829693,43.212959],[76.829846,43.212853],[76.830109,43.212709],[76.830411,43.21254],[76.830712,43.212424],[76.830887,43.212252],[76.830893,43.212181],[76.830994,43.212022],[76.831474,43.21132],[76.831671,43.211065],[76.832103,43.210663],[76.83227,43.210466],[76.832508,43.210292],[76.832905,43.209943],[76.833167,43.20978],[76.833364,43.209726],[76.833484,43.209676],[76.833674,43.209595],[76.833732,43.209465],[76.833852,43.20913],[76.833987,43.208581],[76.834099,43.208248],[76.834265,43.20811],[76.834442,43.207943],[76.8345,43.207693],[76.834547,43.207315],[76.834655,43.206853],[76.834794,43.206284],[76.83474,43.206013],[76.834704,43.205755],[76.834737,43.205603],[76.834816,43.205442],[76.834923,43.205306],[76.835392,43.20452],[76.835594,43.204221],[76.835704,43.204058],[76.83602,43.203594],[76.836041,43.203505],[76.836091,43.203347],[76.836194,43.203094],[76.836284,43.202951],[76.836391,43.202787],[76.836443,43.202652],[76.836444,43.202459],[76.836482,43.202368],[76.836561,43.202282],[76.836662,43.202152],[76.836713,43.202019],[76.83679,43.201668],[76.836827,43.201437],[76.836949,43.201284],[76.837066,43.201092],[76.837241,43.200773],[76.837427,43.200615],[76.837506,43.200366],[76.837657,43.200087],[76.837863,43.199824],[76.838166,43.199531],[76.838199,43.199256],[76.838552,43.198897],[76.838913,43.198586],[76.839323,43.198155],[76.83984,43.197832],[76.840234,43.197551],[76.840676,43.197392],[76.840906,43.197211],[76.841119,43.19737],[76.84484,43.200216],[76.844882,43.200308],[76.845466,43.199377],[76.845588,43.199075],[76.845814,43.198511],[76.846027,43.197862],[76.8461,43.197723],[76.846727,43.196767],[76.848046,43.197143],[76.849284,43.197305],[76.850821,43.197596],[76.850909,43.197297],[76.851057,43.196352],[76.851055,43.195833],[76.850971,43.1954],[76.850784,43.195179],[76.850556,43.1951],[76.850389,43.194897],[76.850395,43.194558],[76.850666,43.194524],[76.850827,43.192834],[76.850997,43.192639],[76.851855,43.193234],[76.852267,43.193411],[76.853101,43.193817],[76.85336,43.194011],[76.853901,43.194217],[76.855134,43.194432],[76.856442,43.194606],[76.85794,43.194708],[76.859228,43.194746],[76.860808,43.194874],[76.86226,43.194933],[76.862833,43.195046],[76.863323,43.195221],[76.863915,43.195356],[76.864473,43.195401],[76.864948,43.195578],[76.870834,43.1973],[76.871231,43.197462],[76.871115,43.197591],[76.870753,43.197881],[76.87038,43.19821],[76.87014,43.19844],[76.869876,43.198728],[76.869612,43.199044],[76.869446,43.199254],[76.869283,43.199474],[76.868856,43.200142],[76.868594,43.200642],[76.86842,43.200937],[76.868209,43.201327],[76.867665,43.202328],[76.867259,43.203139],[76.866776,43.204091],[76.866935,43.204138],[76.867167,43.20419],[76.869609,43.204664],[76.87217,43.205137],[76.872878,43.205271],[76.874468,43.205573],[76.877823,43.206208],[76.87866,43.206383],[76.879503,43.206555],[76.879593,43.206574],[76.879955,43.20663],[76.881653,43.206929],[76.881686,43.206935],[76.883204,43.207223],[76.884104,43.207393],[76.884083,43.207454],[76.883632,43.208684],[76.883399,43.209367],[76.882727,43.211228],[76.882871,43.211277],[76.883227,43.21134],[76.883703,43.211432],[76.883754,43.211502],[76.883759,43.211519],[76.883837,43.211539],[76.883904,43.211549],[76.884421,43.211657],[76.884526,43.211668],[76.884628,43.211707],[76.88483,43.211729],[76.8851,43.215872],[76.885096,43.216184],[76.88504,43.216512],[76.884928,43.216862],[76.884457,43.218417],[76.88398,43.219985],[76.883865,43.220242],[76.883791,43.220384],[76.883677,43.220509],[76.883548,43.220601],[76.883417,43.220682],[76.883166,43.220847],[76.88272,43.221311],[76.882539,43.221524],[76.881907,43.222388],[76.881352,43.223267],[76.881071,43.224297],[76.88049,43.225149],[76.880157,43.225552],[76.879791,43.226005],[76.879085,43.226832],[76.87874,43.227276],[76.878423,43.227707],[76.878104,43.228143],[76.877952,43.228285],[76.877888,43.228343],[76.877825,43.228385],[76.877651,43.228463],[76.877498,43.228526],[76.876414,43.228896],[76.876157,43.22899],[76.875775,43.229167],[76.875146,43.229481],[76.874947,43.22959],[76.874796,43.229695],[76.87466,43.229807],[76.87391,43.230465],[76.873402,43.230936],[76.872853,43.231438],[76.87279,43.231503],[76.872544,43.231735],[76.872091,43.232115],[76.871576,43.232594],[76.871266,43.232841],[76.871002,43.23303],[76.87083,43.233142],[76.870642,43.233262],[76.87013,43.233665],[76.869996,43.233844],[76.869949,43.233998],[76.869946,43.234331],[76.869963,43.234908],[76.869913,43.236208],[76.869913,43.236279],[76.870021,43.237215],[76.869858,43.237459],[76.869739,43.237618],[76.869675,43.237736],[76.869667,43.237834],[76.869665,43.238045],[76.869619,43.238148],[76.869484,43.238254],[76.869271,43.238377],[76.869107,43.238522],[76.869033,43.238617],[76.86892,43.238725],[76.868522,43.238815],[76.868116,43.239061],[76.867881,43.239281],[76.867514,43.239447],[76.867254,43.239773],[76.867205,43.240001],[76.867303,43.24024],[76.867343,43.240419],[76.867321,43.24085],[76.867392,43.24104],[76.867662,43.241189],[76.867875,43.241322],[76.868005,43.241426],[76.868093,43.241772],[76.867884,43.242074],[76.867363,43.242494],[76.86728,43.242783],[76.86726,43.243051],[76.867299,43.243308],[76.867323,43.243399],[76.867252,43.243491],[76.867231,43.243626],[76.867155,43.243735],[76.867053,43.243796],[76.866877,43.243866],[76.866625,43.243993],[76.86643,43.244214],[76.866381,43.244559],[76.866372,43.244747],[76.866346,43.244966],[76.866239,43.245052],[76.865876,43.245259],[76.865639,43.245478],[76.865497,43.245673],[76.865452,43.245831],[76.865328,43.24603],[76.865241,43.246125],[76.865217,43.246292],[76.86531,43.246453],[76.865655,43.246588],[76.865844,43.246694],[76.86586,43.246811],[76.865829,43.246892],[76.865751,43.246992],[76.865475,43.247088],[76.865295,43.247116],[76.864994,43.247118],[76.864886,43.247118],[76.864752,43.247066],[76.864549,43.24712],[76.864282,43.247733],[76.864162,43.247929],[76.864016,43.248076],[76.863659,43.249324],[76.865206,43.256275],[76.865133,43.256512],[76.865058,43.256673],[76.863944,43.256187],[76.862206,43.255029],[76.859961,43.2535],[76.858611,43.252615],[76.857662,43.252165],[76.855075,43.251465],[76.852534,43.250861],[76.851188,43.250601],[76.850504,43.250441],[76.848541,43.249942],[76.847768,43.249743],[76.84766,43.249715],[76.846698,43.249468],[76.846211,43.249341],[76.845737,43.249215],[76.845141,43.24903],[76.843254,43.248143],[76.84258,43.24783],[76.842409,43.24775],[76.842162,43.247633],[76.84214,43.247622],[76.841884,43.247501],[76.840858,43.247055],[76.83982,43.246647],[76.838953,43.246317],[76.837509,43.245843],[76.836175,43.245423],[76.835186,43.245155],[76.833473,43.244718],[76.832279,43.244408],[76.830165,43.243868],[76.828774,43.243508],[76.827055,43.243108],[76.825705,43.242786],[76.824011,43.24238],[76.8224,43.241972],[76.820431,43.24151],[76.818323,43.241012],[76.815713,43.240376],[76.814365,43.240046],[76.813365,43.239808],[76.813036,43.239708],[76.811889,43.239208],[76.81062,43.238672],[76.809551,43.238047]]]]}},{"type":"Feature","properties":{"id":"bostandyk","name":"Бостандыкский","nameEn":"Bostandyq"},"geometry":{"type":"MultiPolygon","coordinates":[[[[76.864473,43.195401],[76.864018,43.195049],[76.863809,43.194743],[76.863727,43.194353],[76.863742,43.194074],[76.863852,43.193765],[76.865057,43.190926],[76.866803,43.186011],[76.873241,43.176378],[76.867167,43.176593],[76.866754,43.176518],[76.866234,43.176217],[76.866278,43.176147],[76.867845,43.174741],[76.869771,43.173128],[76.871982,43.171463],[76.873549,43.170537],[76.87536,43.169121],[76.875873,43.168827],[76.877129,43.168214],[76.878307,43.167494],[76.879668,43.166502],[76.878963,43.16589],[76.879716,43.165003],[76.879872,43.164583],[76.882115,43.162705],[76.882287,43.162332],[76.883481,43.161348],[76.884142,43.160365],[76.883382,43.159884],[76.883419,43.159433],[76.882672,43.158998],[76.882298,43.158663],[76.882187,43.158211],[76.881956,43.157755],[76.882262,43.157411],[76.883393,43.157263],[76.884231,43.156178],[76.884231,43.156375],[76.884314,43.156412],[76.885444,43.155984],[76.888127,43.153984],[76.888392,43.153499],[76.889125,43.152961],[76.890217,43.15201],[76.891469,43.151055],[76.891744,43.15054],[76.892779,43.149483],[76.893226,43.146712],[76.894391,43.146922],[76.895448,43.14734],[76.896033,43.146819],[76.896641,43.145872],[76.898298,43.144188],[76.898732,43.143498],[76.899975,43.142502],[76.90073,43.141186],[76.901823,43.138445],[76.89972,43.136998],[76.898983,43.136384],[76.897575,43.132931],[76.898696,43.133434],[76.900466,43.133531],[76.901051,43.133925],[76.902321,43.133081],[76.903075,43.133022],[76.904956,43.128703],[76.902376,43.128626],[76.895155,43.126095],[76.894407,43.121478],[76.896594,43.119375],[76.898863,43.11361],[76.899421,43.108458],[76.898852,43.102095],[76.899873,43.09426],[76.900372,43.086724],[76.900697,43.083947],[76.902194,43.082228],[76.905353,43.080148],[76.909002,43.079781],[76.915694,43.081179],[76.92026,43.082597],[76.930799,43.085144],[76.937026,43.085036],[76.945501,43.084272],[76.956601,43.082063],[76.962353,43.077811],[76.96658,43.073677],[76.967609,43.069265],[76.966699,43.065083],[76.963639,43.06046],[76.963719,43.059234],[76.962075,43.05735],[76.957792,43.054031],[76.957171,43.053016],[76.950575,43.049994],[76.947239,43.04803],[76.943204,43.048839],[76.94227,43.046802],[76.939487,43.046253],[76.936781,43.044329],[76.936886,43.040904],[76.938923,43.039597],[76.941538,43.038701],[76.943479,43.033771],[76.94482,43.033794],[76.949613,43.039535],[76.957868,43.043419],[76.963503,43.046852],[76.966515,43.049618],[76.972414,43.047335],[76.979892,43.044593],[76.98303,43.044036],[76.983417,43.043825],[76.984225,43.043582],[76.985475,43.043366],[76.986215,43.043299],[76.987748,43.043609],[76.988885,43.044434],[76.989422,43.044568],[76.990427,43.044465],[76.991971,43.044781],[76.99311,43.045587],[76.993494,43.046648],[76.993803,43.047339],[76.994215,43.048465],[76.994845,43.049435],[76.994856,43.051046],[76.994279,43.051826],[76.993532,43.052284],[76.992604,43.052669],[76.991527,43.052989],[76.990944,43.053324],[76.991043,43.053757],[76.991441,43.054226],[76.991682,43.054745],[76.991788,43.055287],[76.991838,43.056128],[76.991672,43.056807],[76.991131,43.057397],[76.990138,43.058068],[76.989076,43.058912],[76.988057,43.05917],[76.986794,43.058722],[76.986734,43.060721],[76.987452,43.062752],[76.988796,43.064067],[76.991406,43.06609],[76.991759,43.068468],[76.991822,43.071437],[76.990296,43.073917],[76.989468,43.075042],[76.984041,43.077468],[76.982459,43.079279],[76.97995,43.083015],[76.975547,43.085419],[76.972857,43.085944],[76.970208,43.087551],[76.968708,43.087847],[76.967555,43.087591],[76.966683,43.087798],[76.965023,43.089037],[76.963213,43.089858],[76.958324,43.09483],[76.955858,43.095237],[76.947192,43.102711],[76.944864,43.104382],[76.938151,43.103753],[76.936873,43.103163],[76.932807,43.103483],[76.931365,43.102828],[76.93045,43.102752],[76.929661,43.10304],[76.927645,43.103305],[76.92778,43.103662],[76.927226,43.105401],[76.927446,43.106015],[76.927025,43.106469],[76.925748,43.105723],[76.925323,43.105987],[76.9237,43.106423],[76.923354,43.106381],[76.922678,43.106714],[76.921916,43.107316],[76.921357,43.108168],[76.920154,43.108838],[76.918825,43.110469],[76.919667,43.111021],[76.919752,43.111209],[76.919499,43.111505],[76.919469,43.112099],[76.91888,43.113502],[76.918293,43.114432],[76.917739,43.115184],[76.91767,43.11557],[76.917667,43.116276],[76.923861,43.116611],[76.931064,43.115089],[76.931183,43.115378],[76.924017,43.116962],[76.917371,43.116496],[76.915747,43.118263],[76.915724,43.118362],[76.91476,43.119181],[76.914453,43.119115],[76.913521,43.120358],[76.91318,43.121118],[76.912296,43.122563],[76.911019,43.12399],[76.911036,43.125774],[76.911254,43.125775],[76.912655,43.124551],[76.912754,43.124248],[76.913053,43.124296],[76.916423,43.122215],[76.947309,43.12746],[76.959624,43.127668],[76.953335,43.13816],[76.953007,43.140259],[76.950379,43.144451],[76.966509,43.157839],[76.966689,43.157708],[76.967279,43.155775],[76.967958,43.15542],[76.968073,43.158347],[76.968849,43.159097],[76.968283,43.15974],[76.965047,43.166791],[76.96505,43.167248],[76.96478,43.167925],[76.964507,43.168305],[76.964166,43.169264],[76.963501,43.170324],[76.963318,43.17079],[76.964205,43.171021],[76.963942,43.171317],[76.963727,43.171738],[76.963646,43.171998],[76.963628,43.172395],[76.963665,43.172754],[76.963555,43.173466],[76.963561,43.174505],[76.963401,43.174538],[76.963247,43.17465],[76.962627,43.175183],[76.962427,43.175314],[76.961974,43.175494],[76.96121,43.175712],[76.960554,43.175853],[76.959933,43.176003],[76.959548,43.176138],[76.958631,43.176713],[76.958367,43.176881],[76.959217,43.177067],[76.959499,43.17722],[76.958532,43.179236],[76.960157,43.180994],[76.96006,43.181116],[76.95955,43.181344],[76.958599,43.181632],[76.957486,43.182155],[76.957218,43.182089],[76.956852,43.182088],[76.956537,43.182148],[76.956168,43.182344],[76.955538,43.182746],[76.955082,43.183401],[76.954867,43.183935],[76.954776,43.184024],[76.95431,43.183834],[76.953812,43.18475],[76.95362,43.184696],[76.951899,43.187325],[76.952241,43.18738],[76.951633,43.188264],[76.95137,43.188345],[76.950643,43.188998],[76.950384,43.189456],[76.950046,43.190699],[76.949349,43.191193],[76.948764,43.191519],[76.948612,43.191671],[76.948317,43.191827],[76.947801,43.191926],[76.947425,43.192169],[76.946723,43.193158],[76.946058,43.193799],[76.945427,43.194486],[76.944934,43.194682],[76.944642,43.195035],[76.944203,43.195404],[76.943947,43.196056],[76.943725,43.196465],[76.943414,43.197026],[76.942941,43.19753],[76.942533,43.197649],[76.942228,43.197677],[76.941807,43.197815],[76.941638,43.19787],[76.941229,43.198302],[76.940019,43.199508],[76.93972,43.199564],[76.939118,43.199982],[76.936007,43.201225],[76.934439,43.20143],[76.933318,43.20223],[76.932559,43.204465],[76.931691,43.204275],[76.931634,43.20472],[76.931152,43.207063],[76.931049,43.207338],[76.932001,43.207414],[76.932389,43.207614],[76.932804,43.207992],[76.932974,43.208034],[76.933126,43.208018],[76.934172,43.207536],[76.934477,43.207452],[76.934955,43.207243],[76.936605,43.206812],[76.937315,43.206563],[76.938633,43.20626],[76.93982,43.205944],[76.940794,43.205625],[76.941266,43.206298],[76.940975,43.206576],[76.938818,43.20865],[76.935927,43.210062],[76.93478,43.210224],[76.935754,43.211535],[76.936925,43.213441],[76.936429,43.213551],[76.936247,43.213592],[76.935657,43.21374],[76.93498,43.213901],[76.934541,43.214004],[76.934096,43.214118],[76.933985,43.214144],[76.933844,43.214178],[76.932895,43.214407],[76.932681,43.214462],[76.932495,43.214511],[76.931551,43.214757],[76.930228,43.215078],[76.929923,43.21514],[76.929503,43.215204],[76.928861,43.215261],[76.928082,43.215324],[76.926988,43.215447],[76.926692,43.215466],[76.92643,43.215474],[76.926245,43.215443],[76.92583,43.21533],[76.92562,43.21522],[76.92546,43.215077],[76.925414,43.215036],[76.925323,43.21498],[76.925242,43.214954],[76.925197,43.21495],[76.925083,43.214948],[76.925081,43.215103],[76.925038,43.215246],[76.924883,43.215469],[76.924814,43.215532],[76.925276,43.215812],[76.92569,43.216048],[76.92621,43.216354],[76.926698,43.21665],[76.927254,43.217],[76.92784,43.217374],[76.928376,43.217713],[76.928891,43.218051],[76.929697,43.218589],[76.930291,43.218996],[76.930736,43.219293],[76.931207,43.219607],[76.931961,43.220112],[76.932426,43.220424],[76.933027,43.220824],[76.933728,43.2213],[76.934747,43.22198],[76.935583,43.222539],[76.936492,43.223172],[76.939638,43.225284],[76.940806,43.226056],[76.942244,43.227024],[76.942911,43.227442],[76.943277,43.227635],[76.943611,43.227788],[76.943818,43.227856],[76.944091,43.227916],[76.944366,43.227957],[76.944632,43.227976],[76.944875,43.227976],[76.945636,43.227947],[76.946217,43.22793],[76.946811,43.227933],[76.947595,43.227945],[76.949854,43.228044],[76.950253,43.228073],[76.950181,43.228548],[76.950127,43.228974],[76.950118,43.229036],[76.950074,43.229295],[76.949939,43.230338],[76.949784,43.231431],[76.949654,43.232313],[76.949572,43.232924],[76.949562,43.23298],[76.949525,43.233255],[76.94946,43.233809],[76.949444,43.233924],[76.949369,43.234431],[76.949304,43.234914],[76.949238,43.235416],[76.949197,43.235809],[76.949084,43.236659],[76.948957,43.23752],[76.948866,43.238213],[76.948796,43.238732],[76.948758,43.239036],[76.948734,43.239212],[76.948725,43.239285],[76.948576,43.240409],[76.948506,43.241142],[76.948336,43.242405],[76.948329,43.242465],[76.947727,43.242421],[76.94667,43.242338],[76.94522,43.242242],[76.943511,43.242135],[76.942559,43.242051],[76.94061,43.241924],[76.939022,43.241816],[76.938219,43.241763],[76.937243,43.241704],[76.936069,43.241625],[76.933402,43.241434],[76.931496,43.241328],[76.929888,43.241217],[76.92827,43.24109],[76.926617,43.240988],[76.923627,43.240792],[76.920234,43.24056],[76.918972,43.240467],[76.917533,43.240366],[76.916476,43.240318],[76.914692,43.240277],[76.914157,43.24028],[76.91236,43.240143],[76.91114,43.240064],[76.909986,43.239985],[76.908817,43.239899],[76.907762,43.239839],[76.906977,43.239791],[76.905786,43.239704],[76.904485,43.239611],[76.903801,43.239564],[76.898406,43.239191],[76.888374,43.238439],[76.88596,43.238292],[76.883964,43.238088],[76.882076,43.237838],[76.880839,43.237658],[76.878748,43.237269],[76.877967,43.237044],[76.876944,43.236667],[76.875876,43.236257],[76.875347,43.235987],[76.874499,43.235578],[76.873757,43.235164],[76.873161,43.234812],[76.872739,43.23455],[76.872323,43.234251],[76.871677,43.233796],[76.87083,43.233142],[76.871002,43.23303],[76.871266,43.232841],[76.871576,43.232594],[76.872091,43.232115],[76.872544,43.231735],[76.87279,43.231503],[76.872853,43.231438],[76.873402,43.230936],[76.87391,43.230465],[76.87466,43.229807],[76.874796,43.229695],[76.874947,43.22959],[76.875146,43.229481],[76.875775,43.229167],[76.876157,43.22899],[76.876414,43.228896],[76.877498,43.228526],[76.877651,43.228463],[76.877825,43.228385],[76.877888,43.228343],[76.877952,43.228285],[76.878104,43.228143],[76.878423,43.227707],[76.87874,43.227276],[76.879085,43.226832],[76.879791,43.226005],[76.880157,43.225552],[76.88049,43.225149],[76.881071,43.224297],[76.881352,43.223267],[76.881907,43.222388],[76.882539,43.221524],[76.88272,43.221311],[76.883166,43.220847],[76.883417,43.220682],[76.883548,43.220601],[76.883677,43.220509],[76.883791,43.220384],[76.883865,43.220242],[76.88398,43.219985],[76.884457,43.218417],[76.884928,43.216862],[76.88504,43.216512],[76.885096,43.216184],[76.8851,43.215872],[76.88483,43.211729],[76.884628,43.211707],[76.884526,43.211668],[76.884421,43.211657],[76.883904,43.211549],[76.883837,43.211539],[76.883759,43.211519],[76.883754,43.211502],[76.883703,43.211432],[76.883227,43.21134],[76.882871,43.211277],[76.882727,43.211228],[76.883399,43.209367],[76.883632,43.208684],[76.884083,43.207454],[76.884104,43.207393],[76.883204,43.207223],[76.881686,43.206935],[76.881653,43.206929],[76.879955,43.20663],[76.879593,43.206574],[76.879503,43.206555],[76.87866,43.206383],[76.877823,43.206208],[76.874468,43.205573],[76.872878,43.205271],[76.87217,43.205137],[76.869609,43.204664],[76.867167,43.20419],[76.866935,43.204138],[76.866776,43.204091],[76.867259,43.203139],[76.867665,43.202328],[76.868209,43.201327],[76.86842,43.200937],[76.868594,43.200642],[76.868856,43.200142],[76.869283,43.199474],[76.869446,43.199254],[76.869612,43.199044],[76.869876,43.198728],[76.87014,43.19844],[76.87038,43.19821],[76.870753,43.197881],[76.871115,43.197591],[76.871231,43.197462],[76.870834,43.1973],[76.864948,43.195578],[76.864473,43.195401]]]]}},{"type":"Feature","properties":{"id":"nauryzbay","name":"Наурызбайский","nameEn":"Nauryzbay"},"geometry":{"type":"MultiPolygon","coordinates":[[[[76.785887,43.232287],[76.769461,43.230378],[76.769888,43.228782],[76.771581,43.226512],[76.772084,43.225415],[76.772798,43.222918],[76.772557,43.221485],[76.778811,43.222526],[76.780635,43.2182],[76.778752,43.218082],[76.771881,43.218034],[76.771868,43.21514],[76.775598,43.2077],[76.776939,43.204326],[76.777371,43.202525],[76.778618,43.199716],[76.779992,43.197897],[76.780987,43.198706],[76.78082,43.199491],[76.780147,43.199612],[76.780034,43.200421],[76.780804,43.200956],[76.780812,43.201524],[76.782179,43.201645],[76.782702,43.199857],[76.78439,43.198202],[76.784309,43.196474],[76.784764,43.196144],[76.786599,43.197137],[76.789089,43.197274],[76.789851,43.196456],[76.790466,43.192849],[76.791277,43.190048],[76.790534,43.188738],[76.790494,43.188521],[76.791216,43.1865],[76.790177,43.186296],[76.791735,43.182176],[76.791793,43.179437],[76.791635,43.178396],[76.792614,43.175301],[76.789762,43.174993],[76.791104,43.172093],[76.792433,43.169783],[76.793086,43.167799],[76.79317,43.167396],[76.792748,43.167335],[76.792736,43.167289],[76.78946,43.167255],[76.789688,43.166872],[76.789348,43.166727],[76.789379,43.16669],[76.789058,43.166556],[76.788789,43.166686],[76.785675,43.165319],[76.787217,43.164528],[76.787294,43.163812],[76.787965,43.163331],[76.788839,43.162944],[76.788218,43.162463],[76.787507,43.162734],[76.786113,43.162642],[76.782011,43.161647],[76.77962,43.161592],[76.77946,43.161292],[76.777267,43.160138],[76.776844,43.160015],[76.776556,43.15966],[76.776544,43.159328],[76.777127,43.159113],[76.777456,43.158767],[76.778182,43.158546],[76.779715,43.158435],[76.781352,43.15778],[76.789169,43.15735],[76.792025,43.156906],[76.792545,43.15742],[76.793766,43.157545],[76.795131,43.15683],[76.796898,43.155294],[76.797502,43.15422],[76.798093,43.154642],[76.798661,43.153739],[76.798809,43.152555],[76.798603,43.151762],[76.798749,43.150266],[76.79857,43.149013],[76.798781,43.148195],[76.799175,43.147443],[76.799577,43.146367],[76.802923,43.145825],[76.80556,43.145952],[76.807747,43.147202],[76.808423,43.146565],[76.80874,43.144536],[76.808654,43.142081],[76.808773,43.140708],[76.808163,43.138527],[76.807872,43.136587],[76.80807,43.135737],[76.823624,43.136412],[76.835684,43.133891],[76.834022,43.132702],[76.833202,43.131134],[76.833013,43.130134],[76.833096,43.128482],[76.832789,43.124083],[76.834241,43.123173],[76.836697,43.124091],[76.838279,43.124101],[76.840855,43.124456],[76.842697,43.125271],[76.842466,43.123988],[76.843255,43.121477],[76.848371,43.12289],[76.84983,43.122318],[76.85031,43.122549],[76.851197,43.123465],[76.851474,43.125757],[76.851435,43.127644],[76.853585,43.129922],[76.852695,43.132114],[76.852859,43.134832],[76.854907,43.134541],[76.855048,43.133435],[76.855884,43.131717],[76.857551,43.133315],[76.859144,43.133086],[76.858992,43.131578],[76.86045,43.132115],[76.861442,43.130765],[76.86275,43.130479],[76.863746,43.131255],[76.864186,43.132616],[76.86551,43.132625],[76.866833,43.131372],[76.87047,43.126673],[76.874378,43.12603],[76.874774,43.126234],[76.875588,43.127118],[76.889959,43.12722],[76.895155,43.126095],[76.902376,43.128626],[76.904956,43.128703],[76.903075,43.133022],[76.902321,43.133081],[76.901051,43.133925],[76.900466,43.133531],[76.898696,43.133434],[76.897575,43.132931],[76.898983,43.136384],[76.89972,43.136998],[76.901823,43.138445],[76.90073,43.141186],[76.899975,43.142502],[76.898732,43.143498],[76.898298,43.144188],[76.896641,43.145872],[76.896033,43.146819],[76.895448,43.14734],[76.894391,43.146922],[76.893226,43.146712],[76.892779,43.149483],[76.891744,43.15054],[76.891469,43.151055],[76.890217,43.15201],[76.889125,43.152961],[76.888392,43.153499],[76.888127,43.153984],[76.885444,43.155984],[76.884314,43.156412],[76.884231,43.156375],[76.884231,43.156178],[76.883393,43.157263],[76.882262,43.157411],[76.881956,43.157755],[76.882187,43.158211],[76.882298,43.158663],[76.882672,43.158998],[76.883419,43.159433],[76.883382,43.159884],[76.884142,43.160365],[76.883481,43.161348],[76.882287,43.162332],[76.882115,43.162705],[76.879872,43.164583],[76.879716,43.165003],[76.878963,43.16589],[76.879668,43.166502],[76.878307,43.167494],[76.877129,43.168214],[76.875873,43.168827],[76.87536,43.169121],[76.873549,43.170537],[76.871982,43.171463],[76.869771,43.173128],[76.867845,43.174741],[76.866278,43.176147],[76.866234,43.176217],[76.866754,43.176518],[76.867167,43.176593],[76.873241,43.176378],[76.866803,43.186011],[76.865057,43.190926],[76.863852,43.193765],[76.863742,43.194074],[76.863727,43.194353],[76.863809,43.194743],[76.864018,43.195049],[76.864473,43.195401],[76.863915,43.195356],[76.863323,43.195221],[76.862833,43.195046],[76.86226,43.194933],[76.860808,43.194874],[76.859228,43.194746],[76.85794,43.194708],[76.856442,43.194606],[76.855134,43.194432],[76.853901,43.194217],[76.85336,43.194011],[76.853101,43.193817],[76.852267,43.193411],[76.851855,43.193234],[76.850997,43.192639],[76.850827,43.192834],[76.850666,43.194524],[76.850395,43.194558],[76.850389,43.194897],[76.850556,43.1951],[76.850784,43.195179],[76.850971,43.1954],[76.851055,43.195833],[76.851057,43.196352],[76.850909,43.197297],[76.850821,43.197596],[76.849284,43.197305],[76.848046,43.197143],[76.846727,43.196767],[76.8461,43.197723],[76.846027,43.197862],[76.845814,43.198511],[76.845588,43.199075],[76.845466,43.199377],[76.844882,43.200308],[76.84484,43.200216],[76.841119,43.19737],[76.840906,43.197211],[76.840676,43.197392],[76.840234,43.197551],[76.83984,43.197832],[76.839323,43.198155],[76.838913,43.198586],[76.838552,43.198897],[76.838199,43.199256],[76.838166,43.199531],[76.837863,43.199824],[76.837657,43.200087],[76.837506,43.200366],[76.837427,43.200615],[76.837241,43.200773],[76.837066,43.201092],[76.836949,43.201284],[76.836827,43.201437],[76.83679,43.201668],[76.836713,43.202019],[76.836662,43.202152],[76.836561,43.202282],[76.836482,43.202368],[76.836444,43.202459],[76.836443,43.202652],[76.836391,43.202787],[76.836284,43.202951],[76.836194,43.203094],[76.836091,43.203347],[76.836041,43.203505],[76.83602,43.203594],[76.835704,43.204058],[76.835594,43.204221],[76.835392,43.20452],[76.834923,43.205306],[76.834816,43.205442],[76.834737,43.205603],[76.834704,43.205755],[76.83474,43.206013],[76.834794,43.206284],[76.834655,43.206853],[76.834547,43.207315],[76.8345,43.207693],[76.834442,43.207943],[76.834265,43.20811],[76.834099,43.208248],[76.833987,43.208581],[76.833852,43.20913],[76.833732,43.209465],[76.833674,43.209595],[76.833484,43.209676],[76.833364,43.209726],[76.833167,43.20978],[76.832905,43.209943],[76.832508,43.210292],[76.83227,43.210466],[76.832103,43.210663],[76.831671,43.211065],[76.831474,43.21132],[76.830994,43.212022],[76.830893,43.212181],[76.830887,43.212252],[76.830712,43.212424],[76.830411,43.21254],[76.830109,43.212709],[76.829846,43.212853],[76.829693,43.212959],[76.829411,43.21315],[76.828685,43.213667],[76.828084,43.214262],[76.827707,43.214887],[76.827445,43.215278],[76.827259,43.215778],[76.826929,43.216412],[76.826688,43.216849],[76.826412,43.217608],[76.826139,43.217828],[76.82601,43.217984],[76.825736,43.218501],[76.82561,43.218707],[76.825368,43.219041],[76.825149,43.219287],[76.824811,43.21993],[76.824463,43.220655],[76.823892,43.221616],[76.823664,43.221892],[76.823418,43.222288],[76.823186,43.222706],[76.822866,43.223214],[76.822451,43.223786],[76.822316,43.223966],[76.822049,43.224491],[76.821851,43.224807],[76.821527,43.225149],[76.82073,43.22569],[76.819951,43.22626],[76.819443,43.226567],[76.819063,43.226783],[76.818354,43.227143],[76.817369,43.22764],[76.816881,43.227895],[76.8162,43.228427],[76.815621,43.228887],[76.815058,43.229325],[76.81488,43.229526],[76.814801,43.229663],[76.814483,43.229913],[76.814374,43.230581],[76.813945,43.23099],[76.813668,43.231462],[76.813414,43.231939],[76.813035,43.232649],[76.812744,43.233264],[76.812453,43.233413],[76.812009,43.233932],[76.811395,43.235],[76.81123,43.235375],[76.810947,43.236085],[76.810546,43.236694],[76.810145,43.237229],[76.809831,43.237711],[76.809551,43.238047],[76.807661,43.237401],[76.806522,43.236913],[76.804633,43.236103],[76.80292,43.235377],[76.801707,43.234855],[76.800164,43.234219],[76.799415,43.233911],[76.798895,43.233703],[76.799116,43.233391],[76.799085,43.233292],[76.798678,43.233125],[76.798208,43.232661],[76.797592,43.23241],[76.797084,43.233183],[76.796925,43.233157],[76.796774,43.233143],[76.796096,43.233063],[76.795437,43.233005],[76.793052,43.232835],[76.788888,43.232444],[76.78649,43.232169],[76.786234,43.232323],[76.785887,43.232287]]]]}}]}